{
  "version": 0.6,
  "generator": "Overpass API 0.7.56.2 b688b00f",
  "osm3s": {
    "timestamp_osm_base": "2020-03-30T15:11:02Z",
    "copyright": "The data included in this document is from www.openstreetmap.org. The data is made available under ODbL."
  },
  "elements": [

{
  "type": "node",
  "id": 277623691,
  "lat": 47.9293853,
  "lon": 8.7573593,
  "tags": {
    "alt_name": "Donauversickerung",
    "name": "Donauversinkung",
    "name:cs": "Propadání Dunaje",
    "name:de": "Donauversickerung",
    "name:es": "Sumidero del Danubio",
    "name:sk": "Presakovanie Dunaja",
    "natural": "sinkhole",
    "note": "Unterirdische Bifurkation zum Aachtopf",
    "sinkhole": "ponor",
    "tourism": "attraction",
    "wikidata": "Q542495"
  }
},
{
  "type": "node",
  "id": 502425482,
  "lat": 49.3895333,
  "lon": 11.7516551,
  "tags": {
    "name": "Doline",
    "natural": "sinkhole",
    "source": "survey"
  }
},
{
  "type": "node",
  "id": 560133759,
  "lat": 45.7936426,
  "lon": 14.2874013,
  "tags": {
    "name": "Doline Tkalca Jama",
    "natural": "sinkhole"
  }
},
{
  "type": "node",
  "id": 596426293,
  "lat": 45.7855840,
  "lon": 13.6101340,
  "tags": {
    "ele": "155",
    "name": "Dolina del principe / Dol",
    "name:it": "Dolina del principe",
    "name:sl": "Dol",
    "natural": "sinkhole",
    "place": "locality"
  }
},
{
  "type": "node",
  "id": 802436316,
  "lat": 48.7801718,
  "lon": 10.0413570,
  "tags": {
    "ele": "672",
    "natural": "sinkhole"
  }
},
{
  "type": "node",
  "id": 805474843,
  "lat": 48.7749040,
  "lon": 10.0308780,
  "tags": {
    "ele": "658",
    "name": "Doline Wasserfall",
    "natural": "sinkhole"
  }
},
{
  "type": "node",
  "id": 808134791,
  "lat": 48.7658780,
  "lon": 10.0270740,
  "tags": {
    "natural": "sinkhole"
  }
},
{
  "type": "node",
  "id": 808141561,
  "lat": 48.7713121,
  "lon": 10.0312426,
  "tags": {
    "ele": "652",
    "natural": "sinkhole"
  }
},
{
  "type": "node",
  "id": 808141573,
  "lat": 48.7690493,
  "lon": 10.0302556,
  "tags": {
    "ele": "655",
    "natural": "sinkhole"
  }
},
{
  "type": "node",
  "id": 808141578,
  "lat": 48.7681442,
  "lon": 10.0292471,
  "tags": {
    "ele": "652",
    "natural": "sinkhole"
  }
},
{
  "type": "node",
  "id": 808141584,
  "lat": 48.7675360,
  "lon": 10.0287750,
  "tags": {
    "natural": "sinkhole"
  }
},
{
  "type": "node",
  "id": 823572070,
  "lat": 48.7463333,
  "lon": 10.0439777,
  "tags": {
    "ele": "654.538",
    "natural": "sinkhole"
  }
},
{
  "type": "node",
  "id": 830014749,
  "lat": 48.3169613,
  "lon": 9.1753072,
  "tags": {
    "name": "Erdfall Scheckenkobel",
    "natural": "sinkhole"
  }
},
{
  "type": "node",
  "id": 842292740,
  "lat": 48.7648248,
  "lon": 9.9109909,
  "tags": {
    "natural": "sinkhole"
  }
},
{
  "type": "node",
  "id": 842292885,
  "lat": 48.7641747,
  "lon": 9.9121525,
  "tags": {
    "ele": "734",
    "natural": "sinkhole"
  }
},
{
  "type": "node",
  "id": 842292886,
  "lat": 48.7649150,
  "lon": 9.9111307,
  "tags": {
    "ele": "735",
    "natural": "sinkhole"
  }
},
{
  "type": "node",
  "id": 842293829,
  "lat": 48.7637714,
  "lon": 9.9065032,
  "tags": {
    "natural": "sinkhole"
  }
},
{
  "type": "node",
  "id": 893261079,
  "lat": 47.7029499,
  "lon": 12.0441750,
  "tags": {
    "ele": "1458",
    "name": "Doline",
    "natural": "sinkhole"
  }
},
{
  "type": "node",
  "id": 894952842,
  "lat": 49.6203629,
  "lon": 9.6356471,
  "tags": {
    "name": "Fuhrmannsloch",
    "natural": "sinkhole",
    "note": "Doline",
    "tourism": "attraction"
  }
},
{
  "type": "node",
  "id": 897747402,
  "lat": 48.7347949,
  "lon": 10.0478938,
  "tags": {
    "ele": "659",
    "natural": "sinkhole"
  }
},
{
  "type": "node",
  "id": 897747404,
  "lat": 48.7347383,
  "lon": 10.0475719,
  "tags": {
    "ele": "659",
    "natural": "sinkhole"
  }
},
{
  "type": "node",
  "id": 897760122,
  "lat": 48.7417220,
  "lon": 10.0576034,
  "tags": {
    "ele": "658",
    "natural": "sinkhole"
  }
},
{
  "type": "node",
  "id": 897760124,
  "lat": 48.7401792,
  "lon": 10.0618628,
  "tags": {
    "ele": "665",
    "natural": "sinkhole"
  }
},
{
  "type": "node",
  "id": 899371595,
  "lat": 48.7337477,
  "lon": 10.0753274,
  "tags": {
    "ele": "684",
    "natural": "sinkhole"
  }
},
{
  "type": "node",
  "id": 899371601,
  "lat": 48.7344340,
  "lon": 10.0753274,
  "tags": {
    "ele": "694",
    "natural": "sinkhole"
  }
},
{
  "type": "node",
  "id": 899371606,
  "lat": 48.7369814,
  "lon": 10.0763574,
  "tags": {
    "ele": "680",
    "natural": "sinkhole"
  }
},
{
  "type": "node",
  "id": 899371611,
  "lat": 48.7412126,
  "lon": 10.0689759,
  "tags": {
    "ele": "678",
    "natural": "sinkhole"
  }
},
{
  "type": "node",
  "id": 1120385140,
  "lat": 48.7506237,
  "lon": 10.0089996,
  "tags": {
    "natural": "sinkhole"
  }
},
{
  "type": "node",
  "id": 1223943622,
  "lat": 47.9997558,
  "lon": 8.8794462,
  "tags": {
    "name": "Doline",
    "natural": "sinkhole"
  }
},
{
  "type": "node",
  "id": 1234820366,
  "lat": 48.7765411,
  "lon": 10.0388664,
  "tags": {
    "natural": "sinkhole"
  }
},
{
  "type": "node",
  "id": 1237536702,
  "lat": 48.7639969,
  "lon": 10.0392463,
  "tags": {
    "ele": "649",
    "natural": "sinkhole"
  }
},
{
  "type": "node",
  "id": 1243657754,
  "lat": 45.8178977,
  "lon": 13.5291742,
  "tags": {
    "name": "inghiottitoio",
    "natural": "sinkhole"
  }
},
{
  "type": "node",
  "id": 1248623759,
  "lat": 48.7156615,
  "lon": 10.0531509,
  "tags": {
    "ele": "622",
    "natural": "sinkhole"
  }
},
{
  "type": "node",
  "id": 1248625849,
  "lat": 48.7127732,
  "lon": 10.0480440,
  "tags": {
    "ele": "572",
    "natural": "sinkhole"
  }
},
{
  "type": "node",
  "id": 1248672202,
  "lat": 48.7244385,
  "lon": 10.0389459,
  "tags": {
    "natural": "sinkhole"
  }
},
{
  "type": "node",
  "id": 1248683241,
  "lat": 48.7321032,
  "lon": 10.0406487,
  "tags": {
    "natural": "sinkhole"
  }
},
{
  "type": "node",
  "id": 1248683245,
  "lat": 48.7282832,
  "lon": 10.0390995,
  "tags": {
    "natural": "sinkhole"
  }
},
{
  "type": "node",
  "id": 1252616955,
  "lat": 48.7641669,
  "lon": 10.0213546,
  "tags": {
    "natural": "sinkhole"
  }
},
{
  "type": "node",
  "id": 1290860997,
  "lat": 48.7598467,
  "lon": 10.0286951,
  "tags": {
    "natural": "sinkhole"
  }
},
{
  "type": "node",
  "id": 1290861389,
  "lat": 48.7594860,
  "lon": 10.0311305,
  "tags": {
    "natural": "sinkhole"
  }
},
{
  "type": "node",
  "id": 1305181808,
  "lat": 48.7317408,
  "lon": 10.0055363,
  "tags": {
    "natural": "sinkhole"
  }
},
{
  "type": "node",
  "id": 1305182016,
  "lat": 48.7318824,
  "lon": 10.0054076,
  "tags": {
    "natural": "sinkhole"
  }
},
{
  "type": "node",
  "id": 1309430722,
  "lat": 48.7621008,
  "lon": 9.9530570,
  "tags": {
    "ele": "674",
    "natural": "sinkhole"
  }
},
{
  "type": "node",
  "id": 1315986679,
  "lat": 47.8150729,
  "lon": 13.6440994,
  "tags": {
    "natural": "sinkhole"
  }
},
{
  "type": "node",
  "id": 1414687417,
  "lat": 47.5329007,
  "lon": 13.0230997,
  "tags": {
    "natural": "sinkhole"
  }
},
{
  "type": "node",
  "id": 1414687838,
  "lat": 47.5348872,
  "lon": 13.0196742,
  "tags": {
    "natural": "sinkhole"
  }
},
{
  "type": "node",
  "id": 1445675271,
  "lat": 49.0240402,
  "lon": 11.5426244,
  "tags": {
    "name": "Doline",
    "natural": "sinkhole"
  }
},
{
  "type": "node",
  "id": 1456088626,
  "lat": 48.7118576,
  "lon": 10.0802305,
  "tags": {
    "ele": "643",
    "natural": "sinkhole"
  }
},
{
  "type": "node",
  "id": 1572844388,
  "lat": 48.7601347,
  "lon": 9.9288253,
  "tags": {
    "ele": "697",
    "natural": "sinkhole",
    "note": "Durch Schmelzwasser frisch eingebrochene Doline !"
  }
},
{
  "type": "node",
  "id": 1711844038,
  "lat": 48.7310517,
  "lon": 10.1005065,
  "tags": {
    "natural": "sinkhole"
  }
},
{
  "type": "node",
  "id": 1711844060,
  "lat": 48.7308057,
  "lon": 10.1003783,
  "tags": {
    "natural": "sinkhole"
  }
},
{
  "type": "node",
  "id": 1711844163,
  "lat": 48.7304005,
  "lon": 10.0998875,
  "tags": {
    "natural": "sinkhole"
  }
},
{
  "type": "node",
  "id": 1722709775,
  "lat": 49.4178554,
  "lon": 10.1303713,
  "tags": {
    "natural": "sinkhole",
    "source": "bing"
  }
},
{
  "type": "node",
  "id": 1741637515,
  "lat": 48.7444042,
  "lon": 9.9530583,
  "tags": {
    "natural": "sinkhole"
  }
},
{
  "type": "node",
  "id": 1741637516,
  "lat": 48.7446377,
  "lon": 9.9533480,
  "tags": {
    "natural": "sinkhole"
  }
},
{
  "type": "node",
  "id": 1741637517,
  "lat": 48.7442061,
  "lon": 9.9529832,
  "tags": {
    "natural": "sinkhole"
  }
},
{
  "type": "node",
  "id": 1741637518,
  "lat": 48.7445316,
  "lon": 9.9532085,
  "tags": {
    "natural": "sinkhole"
  }
},
{
  "type": "node",
  "id": 1756616821,
  "lat": 48.7507884,
  "lon": 9.9284805,
  "tags": {
    "natural": "sinkhole"
  }
},
{
  "type": "node",
  "id": 1760030905,
  "lat": 48.7674366,
  "lon": 9.9433614,
  "tags": {
    "natural": "sinkhole"
  }
},
{
  "type": "node",
  "id": 1787611937,
  "lat": 48.7353344,
  "lon": 9.9646688,
  "tags": {
    "ele": "718",
    "natural": "sinkhole"
  }
},
{
  "type": "node",
  "id": 1787614798,
  "lat": 48.7284559,
  "lon": 9.9590147,
  "tags": {
    "ele": "693",
    "natural": "sinkhole"
  }
},
{
  "type": "node",
  "id": 1801025035,
  "lat": 48.7186210,
  "lon": 9.9890582,
  "tags": {
    "natural": "sinkhole"
  }
},
{
  "type": "node",
  "id": 1801036921,
  "lat": 48.7192014,
  "lon": 9.9971477,
  "tags": {
    "natural": "sinkhole"
  }
},
{
  "type": "node",
  "id": 1925674474,
  "lat": 48.9470657,
  "lon": 6.3093824,
  "tags": {
    "natural": "sinkhole"
  }
},
{
  "type": "node",
  "id": 1976943313,
  "lat": 48.0992043,
  "lon": 8.9456784,
  "tags": {
    "natural": "sinkhole"
  }
},
{
  "type": "node",
  "id": 2030609665,
  "lat": 47.7502731,
  "lon": 12.2783294,
  "tags": {
    "description": "Doline",
    "natural": "sinkhole"
  }
},
{
  "type": "node",
  "id": 2030615303,
  "lat": 47.7498854,
  "lon": 12.2783028,
  "tags": {
    "description": "Doline",
    "natural": "sinkhole"
  }
},
{
  "type": "node",
  "id": 2030615305,
  "lat": 47.7500495,
  "lon": 12.2782009,
  "tags": {
    "description": "Doline",
    "natural": "sinkhole"
  }
},
{
  "type": "node",
  "id": 2219640135,
  "lat": 46.7961970,
  "lon": 14.3584600,
  "tags": {
    "description": "Pinge",
    "natural": "sinkhole"
  }
},
{
  "type": "node",
  "id": 2280077470,
  "lat": 48.4198417,
  "lon": 9.9681853,
  "tags": {
    "natural": "sinkhole"
  }
},
{
  "type": "node",
  "id": 2320499772,
  "lat": 47.7547208,
  "lon": 12.2646150,
  "tags": {
    "description": "Doline",
    "natural": "sinkhole"
  }
},
{
  "type": "node",
  "id": 2320499773,
  "lat": 47.7555529,
  "lon": 12.2650067,
  "tags": {
    "description": "Doline",
    "natural": "sinkhole"
  }
},
{
  "type": "node",
  "id": 2320499774,
  "lat": 47.7556126,
  "lon": 12.2655647,
  "tags": {
    "description": "Doline",
    "natural": "sinkhole"
  }
},
{
  "type": "node",
  "id": 2320499776,
  "lat": 47.7556883,
  "lon": 12.2658890,
  "tags": {
    "description": "Doline",
    "natural": "sinkhole"
  }
},
{
  "type": "node",
  "id": 2320499777,
  "lat": 47.7557430,
  "lon": 12.2660940,
  "tags": {
    "description": "Doline",
    "natural": "sinkhole"
  }
},
{
  "type": "node",
  "id": 2320499779,
  "lat": 47.7562223,
  "lon": 12.2683927,
  "tags": {
    "description": "Doline",
    "natural": "sinkhole"
  }
},
{
  "type": "node",
  "id": 2320499780,
  "lat": 47.7562151,
  "lon": 12.2687944,
  "tags": {
    "description": "Doline",
    "natural": "sinkhole"
  }
},
{
  "type": "node",
  "id": 2320499781,
  "lat": 47.7562369,
  "lon": 12.2686062,
  "tags": {
    "description": "Doline",
    "natural": "sinkhole"
  }
},
{
  "type": "node",
  "id": 2320499784,
  "lat": 47.7566675,
  "lon": 12.2673882,
  "tags": {
    "description": "Doline",
    "natural": "sinkhole"
  }
},
{
  "type": "node",
  "id": 2431637622,
  "lat": 47.5062612,
  "lon": 13.1189833,
  "tags": {
    "natural": "sinkhole"
  }
},
{
  "type": "node",
  "id": 2432552114,
  "lat": 47.5228406,
  "lon": 13.1018966,
  "tags": {
    "natural": "sinkhole"
  }
},
{
  "type": "node",
  "id": 2440497661,
  "lat": 47.5459401,
  "lon": 12.6538736,
  "tags": {
    "natural": "sinkhole"
  }
},
{
  "type": "node",
  "id": 2440497662,
  "lat": 47.5459853,
  "lon": 12.6537417,
  "tags": {
    "natural": "sinkhole"
  }
},
{
  "type": "node",
  "id": 2440497667,
  "lat": 47.5478107,
  "lon": 12.6530543,
  "tags": {
    "natural": "sinkhole"
  }
},
{
  "type": "node",
  "id": 2440497670,
  "lat": 47.5481804,
  "lon": 12.6515835,
  "tags": {
    "natural": "sinkhole"
  }
},
{
  "type": "node",
  "id": 2462720813,
  "lat": 47.6612978,
  "lon": 14.1786625,
  "tags": {
    "name": "Schneeofen",
    "natural": "sinkhole"
  }
},
{
  "type": "node",
  "id": 2482871765,
  "lat": 47.7504880,
  "lon": 12.2585313,
  "tags": {
    "description": "Doline",
    "natural": "sinkhole"
  }
},
{
  "type": "node",
  "id": 2488189396,
  "lat": 49.6981846,
  "lon": 11.4918325,
  "tags": {
    "natural": "sinkhole"
  }
},
{
  "type": "node",
  "id": 2488598450,
  "lat": 45.6634307,
  "lon": 13.8780881,
  "tags": {
    "amenity": "place_of_worship",
    "denomination": "catholic",
    "name": "Dolina Lurške Matere Božje",
    "name:de": "Das Tal der Mutter Gottes von Lourdes",
    "name:en": "The Valley of Our Lady of Lourdes",
    "name:it": "Valle della Nostra Signora di Lourdes",
    "name:sl": "Dolina Lurške Matere Božje",
    "natural": "sinkhole",
    "old_name": "Krkavce",
    "religion": "christian"
  }
},
{
  "type": "node",
  "id": 2488607332,
  "lat": 45.6756929,
  "lon": 13.8863796,
  "tags": {
    "name": "Škilanov dol",
    "natural": "sinkhole"
  }
},
{
  "type": "node",
  "id": 2503548832,
  "lat": 48.4928268,
  "lon": 8.8653992,
  "tags": {
    "name": "Küblers Loch",
    "natural": "sinkhole"
  }
},
{
  "type": "node",
  "id": 2504238608,
  "lat": 45.7068245,
  "lon": 13.7558901,
  "tags": {
    "name": "Školudnjek",
    "natural": "sinkhole"
  }
},
{
  "type": "node",
  "id": 2504238609,
  "lat": 45.6903908,
  "lon": 13.8107794,
  "tags": {
    "natural": "sinkhole"
  }
},
{
  "type": "node",
  "id": 2504238610,
  "lat": 45.7189749,
  "lon": 13.7442386,
  "tags": {
    "ele": "179",
    "name": "Šeginou dol",
    "natural": "sinkhole"
  }
},
{
  "type": "node",
  "id": 2504238611,
  "lat": 45.7474392,
  "lon": 13.6765660,
  "tags": {
    "natural": "sinkhole"
  }
},
{
  "type": "node",
  "id": 2504239232,
  "lat": 45.6305866,
  "lon": 13.8638664,
  "tags": {
    "natural": "sinkhole"
  }
},
{
  "type": "node",
  "id": 2504265886,
  "lat": 45.7512801,
  "lon": 13.6830639,
  "tags": {
    "ele": "94",
    "name": "Velike Nive",
    "name:it": "Veliche Nive",
    "name:sl": "Velike njive",
    "natural": "sinkhole"
  }
},
{
  "type": "node",
  "id": 2504265888,
  "lat": 45.7811119,
  "lon": 13.6280722,
  "tags": {
    "ele": "104",
    "name": "Mavhinjski dol",
    "natural": "sinkhole"
  }
},
{
  "type": "node",
  "id": 2504265891,
  "lat": 45.7819499,
  "lon": 13.6264843,
  "tags": {
    "name": "Žužkovi doli",
    "natural": "sinkhole"
  }
},
{
  "type": "node",
  "id": 2504265893,
  "lat": 45.6638788,
  "lon": 13.8777901,
  "tags": {
    "natural": "sinkhole"
  }
},
{
  "type": "node",
  "id": 2504265895,
  "lat": 45.7573123,
  "lon": 13.6663719,
  "tags": {
    "ele": "64",
    "name": "Senik",
    "natural": "sinkhole"
  }
},
{
  "type": "node",
  "id": 2504265897,
  "lat": 45.6918544,
  "lon": 13.8325187,
  "tags": {
    "alt_name": "Conca d'Orle",
    "ele": "264",
    "name": "Dol Draga / Conca d'Orlek",
    "name:it": "Conca d'Orlek",
    "name:sl": "Dol Draga",
    "natural": "sinkhole"
  }
},
{
  "type": "node",
  "id": 2504274797,
  "lat": 45.7113343,
  "lon": 13.7531870,
  "tags": {
    "ele": "211",
    "name": "Mornjak",
    "natural": "sinkhole"
  }
},
{
  "type": "node",
  "id": 2504274798,
  "lat": 45.7376841,
  "lon": 13.7070300,
  "tags": {
    "ele": "156",
    "natural": "sinkhole"
  }
},
{
  "type": "node",
  "id": 2507340430,
  "lat": 45.7410531,
  "lon": 13.7029960,
  "tags": {
    "natural": "sinkhole"
  }
},
{
  "type": "node",
  "id": 2507343604,
  "lat": 45.6959591,
  "lon": 13.8021519,
  "tags": {
    "natural": "sinkhole"
  }
},
{
  "type": "node",
  "id": 2507343605,
  "lat": 45.6895748,
  "lon": 13.8198760,
  "tags": {
    "natural": "sinkhole"
  }
},
{
  "type": "node",
  "id": 2507343606,
  "lat": 45.6955551,
  "lon": 13.8067868,
  "tags": {
    "natural": "sinkhole"
  }
},
{
  "type": "node",
  "id": 2508705329,
  "lat": 45.6868754,
  "lon": 13.8341632,
  "tags": {
    "natural": "sinkhole"
  }
},
{
  "type": "node",
  "id": 2511495537,
  "lat": 45.6527575,
  "lon": 13.8463064,
  "tags": {
    "natural": "sinkhole"
  }
},
{
  "type": "node",
  "id": 2514169769,
  "lat": 45.7265848,
  "lon": 13.7451097,
  "tags": {
    "natural": "sinkhole"
  }
},
{
  "type": "node",
  "id": 2514174935,
  "lat": 45.7483909,
  "lon": 13.6950474,
  "tags": {
    "natural": "sinkhole"
  }
},
{
  "type": "node",
  "id": 2549218798,
  "lat": 48.6528963,
  "lon": 10.1267013,
  "tags": {
    "access": "no",
    "fixme": "Bitte genauen Namen eintragen, wenn bekannt",
    "natural": "sinkhole"
  }
},
{
  "type": "node",
  "id": 2559811577,
  "lat": 49.3388042,
  "lon": 6.9827913,
  "tags": {
    "description": "Pingen auf das hier zu Tage tretende Dilsburger Flöz",
    "historic": "mine",
    "natural": "sinkhole"
  }
},
{
  "type": "node",
  "id": 2559811578,
  "lat": 49.3389030,
  "lon": 6.9830456,
  "tags": {
    "description": "Pingen auf das hier zu Tage tretende Dilsburger Flöz",
    "historic": "mine",
    "natural": "sinkhole"
  }
},
{
  "type": "node",
  "id": 2594021745,
  "lat": 45.6163798,
  "lon": 13.9113541,
  "tags": {
    "natural": "sinkhole"
  }
},
{
  "type": "node",
  "id": 2594364044,
  "lat": 45.6754684,
  "lon": 13.9630044,
  "tags": {
    "name": "Dolina Divaški Radvanj",
    "natural": "sinkhole"
  }
},
{
  "type": "node",
  "id": 2594364066,
  "lat": 45.6767085,
  "lon": 13.9594124,
  "tags": {
    "name": "Dolina Gorenjski Radvanj",
    "natural": "sinkhole"
  }
},
{
  "type": "node",
  "id": 2594364101,
  "lat": 45.6772551,
  "lon": 13.9668001,
  "tags": {
    "ele": "363",
    "natural": "sinkhole"
  }
},
{
  "type": "node",
  "id": 2599649141,
  "lat": 45.6992102,
  "lon": 13.7971877,
  "tags": {
    "name": "široki doline",
    "natural": "sinkhole"
  }
},
{
  "type": "node",
  "id": 2610374294,
  "lat": 47.4313934,
  "lon": 7.8888368,
  "tags": {
    "natural": "sinkhole"
  }
},
{
  "type": "node",
  "id": 2611288105,
  "lat": 49.3365971,
  "lon": 6.9765302,
  "tags": {
    "description": "Pingen auf das hier zu Tage tretende Dilsburger Flöz",
    "historic": "mine",
    "natural": "sinkhole"
  }
},
{
  "type": "node",
  "id": 2611288109,
  "lat": 49.3365725,
  "lon": 6.9770044,
  "tags": {
    "description": "Pingen auf das hier zu Tage tretende Dilsburger Flöz",
    "historic": "mine",
    "natural": "sinkhole"
  }
},
{
  "type": "node",
  "id": 2611288114,
  "lat": 49.3384365,
  "lon": 6.9818273,
  "tags": {
    "description": "Pingen auf das hier zu Tage tretende Dilsburger Flöz",
    "historic": "mine",
    "natural": "sinkhole"
  }
},
{
  "type": "node",
  "id": 2634373291,
  "lat": 45.6672053,
  "lon": 13.9915712,
  "tags": {
    "ele": "394",
    "natural": "sinkhole"
  }
},
{
  "type": "node",
  "id": 2639117062,
  "lat": 48.9737965,
  "lon": 11.5008262,
  "tags": {
    "name": "Doline",
    "natural": "sinkhole"
  }
},
{
  "type": "node",
  "id": 2663769808,
  "lat": 49.2914704,
  "lon": 7.0540475,
  "tags": {
    "description": "Pingen",
    "historic": "mine",
    "natural": "sinkhole"
  }
},
{
  "type": "node",
  "id": 2671866388,
  "lat": 45.7716650,
  "lon": 13.6383741,
  "tags": {
    "name": "Kavšca",
    "natural": "sinkhole"
  }
},
{
  "type": "node",
  "id": 2671866398,
  "lat": 45.7741383,
  "lon": 13.6314797,
  "tags": {
    "name": "Bova dolina",
    "natural": "sinkhole"
  }
},
{
  "type": "node",
  "id": 2671887647,
  "lat": 45.7757327,
  "lon": 13.6233705,
  "tags": {
    "name": "Valentinčkova dolina",
    "natural": "sinkhole"
  }
},
{
  "type": "node",
  "id": 2672277839,
  "lat": 45.7766244,
  "lon": 13.6031584,
  "tags": {
    "name": "Vrtolanov dol",
    "natural": "sinkhole"
  }
},
{
  "type": "node",
  "id": 2672277840,
  "lat": 45.7775544,
  "lon": 13.6011256,
  "tags": {
    "name": "Piščev dol",
    "name:it": "\"Scolo delle acque\"",
    "natural": "sinkhole"
  }
},
{
  "type": "node",
  "id": 2672301005,
  "lat": 45.7874680,
  "lon": 13.5939470,
  "tags": {
    "name": "Dolina Sardos / Sardočeva dolina",
    "name:it": "Dolina Sardos",
    "name:sl": "Sardočeva dolina",
    "natural": "sinkhole"
  }
},
{
  "type": "node",
  "id": 2672843110,
  "lat": 45.7945577,
  "lon": 13.6281663,
  "tags": {
    "name": "Smrečja dolina",
    "natural": "sinkhole"
  }
},
{
  "type": "node",
  "id": 2672843132,
  "lat": 45.7933515,
  "lon": 13.6337235,
  "tags": {
    "name": "Na hribni dolini",
    "natural": "sinkhole"
  }
},
{
  "type": "node",
  "id": 2682349068,
  "lat": 45.7905929,
  "lon": 13.6329513,
  "tags": {
    "name": "Ovčja dolina",
    "natural": "sinkhole"
  }
},
{
  "type": "node",
  "id": 2687577429,
  "lat": 47.3885204,
  "lon": 7.9052903,
  "tags": {
    "natural": "sinkhole"
  }
},
{
  "type": "node",
  "id": 2687577498,
  "lat": 47.3890872,
  "lon": 7.9013981,
  "tags": {
    "natural": "sinkhole"
  }
},
{
  "type": "node",
  "id": 2687577523,
  "lat": 47.3893446,
  "lon": 7.8992912,
  "tags": {
    "natural": "sinkhole"
  }
},
{
  "type": "node",
  "id": 2687577524,
  "lat": 47.3893460,
  "lon": 7.9024929,
  "tags": {
    "natural": "sinkhole"
  }
},
{
  "type": "node",
  "id": 2687577545,
  "lat": 47.3894842,
  "lon": 7.9030576,
  "tags": {
    "natural": "sinkhole"
  }
},
{
  "type": "node",
  "id": 2687577561,
  "lat": 47.3895666,
  "lon": 7.9035572,
  "tags": {
    "natural": "sinkhole"
  }
},
{
  "type": "node",
  "id": 2687577562,
  "lat": 47.3895725,
  "lon": 7.9038917,
  "tags": {
    "natural": "sinkhole"
  }
},
{
  "type": "node",
  "id": 2687577587,
  "lat": 47.3900078,
  "lon": 7.9058237,
  "tags": {
    "natural": "sinkhole"
  }
},
{
  "type": "node",
  "id": 2687577588,
  "lat": 47.3900184,
  "lon": 7.9062858,
  "tags": {
    "natural": "sinkhole"
  }
},
{
  "type": "node",
  "id": 2687577589,
  "lat": 47.3901312,
  "lon": 7.9065342,
  "tags": {
    "natural": "sinkhole"
  }
},
{
  "type": "node",
  "id": 2754628908,
  "lat": 47.9772976,
  "lon": 8.9636605,
  "tags": {
    "name": "Harreser Erdfälle",
    "natural": "sinkhole",
    "tourism": "attraction"
  }
},
{
  "type": "node",
  "id": 2754632796,
  "lat": 47.9473709,
  "lon": 8.9568073,
  "tags": {
    "name": "Wasserfalldoline",
    "natural": "sinkhole",
    "tourism": "attraction"
  }
},
{
  "type": "node",
  "id": 2869336850,
  "lat": 45.9616052,
  "lon": 14.1899571,
  "tags": {
    "name": "Ponikve",
    "natural": "sinkhole"
  }
},
{
  "type": "node",
  "id": 2900429106,
  "lat": 45.6838398,
  "lon": 13.9435701,
  "tags": {
    "natural": "sinkhole"
  }
},
{
  "type": "node",
  "id": 2900429107,
  "lat": 45.6848805,
  "lon": 13.9564109,
  "tags": {
    "name": "Bukovnik",
    "natural": "sinkhole"
  }
},
{
  "type": "node",
  "id": 2900429108,
  "lat": 45.6722887,
  "lon": 13.9655094,
  "tags": {
    "name": "Grižni dol",
    "natural": "sinkhole"
  }
},
{
  "type": "node",
  "id": 2900429109,
  "lat": 45.6839069,
  "lon": 13.9463595,
  "tags": {
    "natural": "sinkhole"
  }
},
{
  "type": "node",
  "id": 2917367593,
  "lat": 46.3855223,
  "lon": 13.8535263,
  "tags": {
    "name": "Kotel",
    "natural": "sinkhole",
    "place": "locality"
  }
},
{
  "type": "node",
  "id": 2934669993,
  "lat": 45.7951077,
  "lon": 13.6550013,
  "tags": {
    "natural": "sinkhole",
    "old_name": "Dolina na Manderszhi"
  }
},
{
  "type": "node",
  "id": 2935684629,
  "lat": 45.7835236,
  "lon": 13.6361596,
  "tags": {
    "ele": "126.2",
    "natural": "sinkhole"
  }
},
{
  "type": "node",
  "id": 2935694652,
  "lat": 45.7966354,
  "lon": 13.6727474,
  "tags": {
    "natural": "sinkhole"
  }
},
{
  "type": "node",
  "id": 2960088029,
  "lat": 46.3760425,
  "lon": 13.8502886,
  "tags": {
    "name": "Snežna konta",
    "natural": "sinkhole",
    "place": "locality"
  }
},
{
  "type": "node",
  "id": 2960199301,
  "lat": 46.2836348,
  "lon": 13.7683722,
  "tags": {
    "name": "Luknja",
    "natural": "sinkhole"
  }
},
{
  "type": "node",
  "id": 2960199302,
  "lat": 46.2740712,
  "lon": 13.7807642,
  "tags": {
    "name": "Krošnja",
    "natural": "sinkhole"
  }
},
{
  "type": "node",
  "id": 2960199307,
  "lat": 46.2974026,
  "lon": 13.7523597,
  "tags": {
    "name": "Mrzla Komna",
    "natural": "sinkhole"
  }
},
{
  "type": "node",
  "id": 3009180771,
  "lat": 47.8732027,
  "lon": 13.8373121,
  "tags": {
    "natural": "sinkhole"
  }
},
{
  "type": "node",
  "id": 3016986633,
  "lat": 49.5517923,
  "lon": 9.3752233,
  "tags": {
    "description": "Doline",
    "geological": "sinkhole",
    "natural": "sinkhole"
  }
},
{
  "type": "node",
  "id": 3017124828,
  "lat": 49.5368213,
  "lon": 9.4119284,
  "tags": {
    "geological": "yes",
    "natural": "sinkhole"
  }
},
{
  "type": "node",
  "id": 3031632941,
  "lat": 49.5671057,
  "lon": 9.4011282,
  "tags": {
    "description": "Doline",
    "geological": "yes",
    "natural": "sinkhole"
  }
},
{
  "type": "node",
  "id": 3031635789,
  "lat": 49.5646152,
  "lon": 9.4002614,
  "tags": {
    "description": "Doline",
    "geological": "yes",
    "natural": "sinkhole"
  }
},
{
  "type": "node",
  "id": 3057985920,
  "lat": 47.9915554,
  "lon": 14.7595888,
  "tags": {
    "natural": "sinkhole"
  }
},
{
  "type": "node",
  "id": 3057985921,
  "lat": 47.9916599,
  "lon": 14.7597179,
  "tags": {
    "natural": "sinkhole"
  }
},
{
  "type": "node",
  "id": 3057985922,
  "lat": 47.9919964,
  "lon": 14.7603090,
  "tags": {
    "natural": "sinkhole"
  }
},
{
  "type": "node",
  "id": 3057985923,
  "lat": 47.9922874,
  "lon": 14.7606147,
  "tags": {
    "natural": "sinkhole"
  }
},
{
  "type": "node",
  "id": 3057985924,
  "lat": 47.9924011,
  "lon": 14.7608050,
  "tags": {
    "natural": "sinkhole"
  }
},
{
  "type": "node",
  "id": 3057985925,
  "lat": 47.9926284,
  "lon": 14.7613757,
  "tags": {
    "natural": "sinkhole"
  }
},
{
  "type": "node",
  "id": 3057985926,
  "lat": 47.9927876,
  "lon": 14.7616950,
  "tags": {
    "natural": "sinkhole"
  }
},
{
  "type": "node",
  "id": 3058713817,
  "lat": 47.9805103,
  "lon": 14.7565057,
  "tags": {
    "natural": "sinkhole"
  }
},
{
  "type": "node",
  "id": 3058713818,
  "lat": 47.9806457,
  "lon": 14.7566128,
  "tags": {
    "natural": "sinkhole"
  }
},
{
  "type": "node",
  "id": 3058713819,
  "lat": 47.9808980,
  "lon": 14.7567001,
  "tags": {
    "natural": "sinkhole"
  }
},
{
  "type": "node",
  "id": 3058713820,
  "lat": 47.9810387,
  "lon": 14.7568707,
  "tags": {
    "natural": "sinkhole"
  }
},
{
  "type": "node",
  "id": 3058713821,
  "lat": 47.9811848,
  "lon": 14.7570453,
  "tags": {
    "natural": "sinkhole"
  }
},
{
  "type": "node",
  "id": 3058713822,
  "lat": 47.9814052,
  "lon": 14.7578705,
  "tags": {
    "natural": "sinkhole"
  }
},
{
  "type": "node",
  "id": 3058713823,
  "lat": 47.9815433,
  "lon": 14.7588425,
  "tags": {
    "natural": "sinkhole"
  }
},
{
  "type": "node",
  "id": 3058713824,
  "lat": 47.9815911,
  "lon": 14.7591758,
  "tags": {
    "natural": "sinkhole"
  }
},
{
  "type": "node",
  "id": 3058713825,
  "lat": 47.9820506,
  "lon": 14.7624846,
  "tags": {
    "natural": "sinkhole"
  }
},
{
  "type": "node",
  "id": 3058713826,
  "lat": 47.9821143,
  "lon": 14.7628298,
  "tags": {
    "natural": "sinkhole"
  }
},
{
  "type": "node",
  "id": 3058713827,
  "lat": 47.9821276,
  "lon": 14.7630400,
  "tags": {
    "natural": "sinkhole"
  }
},
{
  "type": "node",
  "id": 3058713828,
  "lat": 47.9821408,
  "lon": 14.7632424,
  "tags": {
    "natural": "sinkhole"
  }
},
{
  "type": "node",
  "id": 3058713829,
  "lat": 47.9821462,
  "lon": 14.7637462,
  "tags": {
    "natural": "sinkhole"
  }
},
{
  "type": "node",
  "id": 3068523199,
  "lat": 47.9893700,
  "lon": 14.7478400,
  "tags": {
    "natural": "sinkhole"
  }
},
{
  "type": "node",
  "id": 3068523200,
  "lat": 47.9892580,
  "lon": 14.7476068,
  "tags": {
    "natural": "sinkhole"
  }
},
{
  "type": "node",
  "id": 3084965988,
  "lat": 46.4132031,
  "lon": 6.0228513,
  "tags": {
    "natural": "sinkhole"
  }
},
{
  "type": "node",
  "id": 3116985620,
  "lat": 47.5527469,
  "lon": 12.9341007,
  "tags": {
    "natural": "sinkhole"
  }
},
{
  "type": "node",
  "id": 3129888618,
  "lat": 46.6836081,
  "lon": 12.4844819,
  "tags": {
    "natural": "sinkhole"
  }
},
{
  "type": "node",
  "id": 3212731464,
  "lat": 47.7479078,
  "lon": 12.3431042,
  "tags": {
    "description": "Doline",
    "natural": "sinkhole"
  }
},
{
  "type": "node",
  "id": 3221594690,
  "lat": 45.6711292,
  "lon": 13.8789593,
  "tags": {
    "name": "Dol Srnjak",
    "natural": "sinkhole"
  }
},
{
  "type": "node",
  "id": 3226183838,
  "lat": 45.7718298,
  "lon": 13.6338997,
  "tags": {
    "ele": "29.3",
    "natural": "sinkhole"
  }
},
{
  "type": "node",
  "id": 3226198279,
  "lat": 45.7747692,
  "lon": 13.6235266,
  "tags": {
    "ele": "55",
    "natural": "sinkhole"
  }
},
{
  "type": "node",
  "id": 3231424044,
  "lat": 45.6958229,
  "lon": 13.8909874,
  "tags": {
    "name": "Dol Lipovnik",
    "natural": "sinkhole"
  }
},
{
  "type": "node",
  "id": 3379378100,
  "lat": 46.7407390,
  "lon": 14.4247060,
  "tags": {
    "natural": "sinkhole"
  }
},
{
  "type": "node",
  "id": 3379378101,
  "lat": 46.7404160,
  "lon": 14.4249320,
  "tags": {
    "natural": "sinkhole"
  }
},
{
  "type": "node",
  "id": 3414919378,
  "lat": 47.1530058,
  "lon": 11.8455881,
  "tags": {
    "fixme": "Steinbruch?",
    "natural": "sinkhole"
  }
},
{
  "type": "node",
  "id": 3423954819,
  "lat": 49.7522533,
  "lon": 6.7945449,
  "tags": {
    "description": "Pingen, entstanden durch Einbruch von Abbaukammern",
    "historic": "mine",
    "natural": "sinkhole"
  }
},
{
  "type": "node",
  "id": 3423954820,
  "lat": 49.7523882,
  "lon": 6.7951710,
  "tags": {
    "description": "Pingen, entstanden durch Einbruch von Abbaukammern",
    "historic": "mine",
    "natural": "sinkhole"
  }
},
{
  "type": "node",
  "id": 3423954825,
  "lat": 49.7530509,
  "lon": 6.7941058,
  "tags": {
    "description": "Pingen, entstanden durch Einbruch von Abbaukammern",
    "historic": "mine",
    "natural": "sinkhole"
  }
},
{
  "type": "node",
  "id": 3424092954,
  "lat": 48.6816583,
  "lon": 9.4925813,
  "tags": {
    "natural": "sinkhole"
  }
},
{
  "type": "node",
  "id": 3434571792,
  "lat": 48.4265061,
  "lon": 9.2202579,
  "tags": {
    "natural": "sinkhole"
  }
},
{
  "type": "node",
  "id": 3469257809,
  "lat": 46.0736334,
  "lon": 10.9988299,
  "tags": {
    "name": "Lusan - Pozzo 6",
    "natural": "sinkhole"
  }
},
{
  "type": "node",
  "id": 3482561659,
  "lat": 45.6872437,
  "lon": 13.8308090,
  "tags": {
    "natural": "sinkhole"
  }
},
{
  "type": "node",
  "id": 3486094295,
  "lat": 49.4217430,
  "lon": 11.7775366,
  "tags": {
    "natural": "sinkhole"
  }
},
{
  "type": "node",
  "id": 3486094300,
  "lat": 49.4218839,
  "lon": 11.7799860,
  "tags": {
    "natural": "sinkhole"
  }
},
{
  "type": "node",
  "id": 3505267957,
  "lat": 47.1618580,
  "lon": 6.0626902,
  "tags": {
    "name": "La Grande Doline",
    "natural": "sinkhole",
    "tourism": "attraction"
  }
},
{
  "type": "node",
  "id": 3510213607,
  "lat": 48.7694710,
  "lon": 9.8834158,
  "tags": {
    "natural": "sinkhole"
  }
},
{
  "type": "node",
  "id": 3523194183,
  "lat": 48.4361242,
  "lon": 14.9797411,
  "tags": {
    "natural": "sinkhole"
  }
},
{
  "type": "node",
  "id": 3621382693,
  "lat": 47.9116811,
  "lon": 14.5272688,
  "tags": {
    "natural": "sinkhole"
  }
},
{
  "type": "node",
  "id": 3622004914,
  "lat": 47.9147270,
  "lon": 14.5528045,
  "tags": {
    "natural": "sinkhole"
  }
},
{
  "type": "node",
  "id": 3636872058,
  "lat": 46.7910022,
  "lon": 8.7553285,
  "tags": {
    "natural": "sinkhole"
  }
},
{
  "type": "node",
  "id": 3636872059,
  "lat": 46.7915017,
  "lon": 8.7560256,
  "tags": {
    "natural": "sinkhole"
  }
},
{
  "type": "node",
  "id": 3650935103,
  "lat": 45.8306136,
  "lon": 12.1930891,
  "tags": {
    "name": "Dolina di Val Posan",
    "natural": "sinkhole",
    "tourism": "attraction"
  }
},
{
  "type": "node",
  "id": 3651319505,
  "lat": 47.6471764,
  "lon": 14.2598550,
  "tags": {
    "natural": "sinkhole"
  }
},
{
  "type": "node",
  "id": 3651319873,
  "lat": 47.6466560,
  "lon": 14.2598121,
  "tags": {
    "natural": "sinkhole"
  }
},
{
  "type": "node",
  "id": 3652378870,
  "lat": 47.6421685,
  "lon": 14.2595628,
  "tags": {
    "natural": "sinkhole"
  }
},
{
  "type": "node",
  "id": 3652387798,
  "lat": 47.6412128,
  "lon": 14.2375995,
  "tags": {
    "natural": "sinkhole"
  }
},
{
  "type": "node",
  "id": 3692001731,
  "lat": 47.9624204,
  "lon": 14.4256872,
  "tags": {
    "natural": "sinkhole"
  }
},
{
  "type": "node",
  "id": 3752839414,
  "lat": 48.9867699,
  "lon": 11.4172030,
  "tags": {
    "name": "Doline",
    "natural": "sinkhole",
    "wheelchair": "no"
  }
},
{
  "type": "node",
  "id": 3753359472,
  "lat": 47.1228114,
  "lon": 7.0308565,
  "tags": {
    "natural": "sinkhole"
  }
},
{
  "type": "node",
  "id": 3753359473,
  "lat": 47.1235453,
  "lon": 7.0319304,
  "tags": {
    "natural": "sinkhole"
  }
},
{
  "type": "node",
  "id": 3753359474,
  "lat": 47.1243782,
  "lon": 7.0324339,
  "tags": {
    "natural": "sinkhole"
  }
},
{
  "type": "node",
  "id": 3753359475,
  "lat": 47.1238845,
  "lon": 7.0332385,
  "tags": {
    "natural": "sinkhole"
  }
},
{
  "type": "node",
  "id": 3753359476,
  "lat": 47.1234412,
  "lon": 7.0328091,
  "tags": {
    "natural": "sinkhole"
  }
},
{
  "type": "node",
  "id": 3812821524,
  "lat": 46.9143599,
  "lon": 6.7109357,
  "tags": {
    "natural": "sinkhole"
  }
},
{
  "type": "node",
  "id": 3812821525,
  "lat": 46.9143508,
  "lon": 6.7162223,
  "tags": {
    "natural": "sinkhole"
  }
},
{
  "type": "node",
  "id": 3818646178,
  "lat": 49.3698433,
  "lon": 8.7087957,
  "tags": {
    "natural": "sinkhole"
  }
},
{
  "type": "node",
  "id": 3904799915,
  "lat": 47.0817856,
  "lon": 9.1290470,
  "tags": {
    "name": "Hellloch Doline",
    "natural": "sinkhole"
  }
},
{
  "type": "node",
  "id": 3911010914,
  "lat": 49.0907182,
  "lon": 8.9236608,
  "tags": {
    "natural": "sinkhole",
    "note": "kreisförmige Senkung, möglicherweise Einschlagskrater oder Erdfall"
  }
},
{
  "type": "node",
  "id": 3933507935,
  "lat": 48.9413274,
  "lon": 8.7216591,
  "tags": {
    "natural": "sinkhole"
  }
},
{
  "type": "node",
  "id": 3933507936,
  "lat": 48.9410964,
  "lon": 8.7214795,
  "tags": {
    "natural": "sinkhole"
  }
},
{
  "type": "node",
  "id": 3933507937,
  "lat": 48.9406013,
  "lon": 8.7208745,
  "tags": {
    "natural": "sinkhole"
  }
},
{
  "type": "node",
  "id": 3933507938,
  "lat": 48.9417208,
  "lon": 8.7189732,
  "tags": {
    "natural": "sinkhole"
  }
},
{
  "type": "node",
  "id": 3976817469,
  "lat": 48.4609775,
  "lon": 9.8562056,
  "tags": {
    "name": "Doline Totengrube",
    "natural": "sinkhole"
  }
},
{
  "type": "node",
  "id": 4012547108,
  "lat": 49.3229478,
  "lon": 6.9798602,
  "tags": {
    "description": "hangseitig gegrabene Vertiefung ca 10x10m evtl Pinge?",
    "historic": "mine",
    "natural": "sinkhole"
  }
},
{
  "type": "node",
  "id": 4032457509,
  "lat": 46.7971803,
  "lon": 14.3591558,
  "tags": {
    "description": "Mundlochpinge",
    "natural": "sinkhole"
  }
},
{
  "type": "node",
  "id": 4032457512,
  "lat": 46.7967524,
  "lon": 14.3589967,
  "tags": {
    "description": "runde Pinge",
    "natural": "sinkhole"
  }
},
{
  "type": "node",
  "id": 4032457513,
  "lat": 46.7966825,
  "lon": 14.3588754,
  "tags": {
    "description": "längliche Pinge",
    "natural": "sinkhole"
  }
},
{
  "type": "node",
  "id": 4077458845,
  "lat": 47.3609691,
  "lon": 11.7819711,
  "tags": {
    "natural": "sinkhole"
  }
},
{
  "type": "node",
  "id": 4077482967,
  "lat": 47.3757565,
  "lon": 11.7130700,
  "tags": {
    "natural": "sinkhole"
  }
},
{
  "type": "node",
  "id": 4077482981,
  "lat": 47.3692103,
  "lon": 11.7020169,
  "tags": {
    "natural": "sinkhole"
  }
},
{
  "type": "node",
  "id": 4077482982,
  "lat": 47.3691775,
  "lon": 11.7017549,
  "tags": {
    "natural": "sinkhole"
  }
},
{
  "type": "node",
  "id": 4077482983,
  "lat": 47.3691628,
  "lon": 11.7018266,
  "tags": {
    "natural": "sinkhole"
  }
},
{
  "type": "node",
  "id": 4077482984,
  "lat": 47.3690272,
  "lon": 11.7017449,
  "tags": {
    "natural": "sinkhole"
  }
},
{
  "type": "node",
  "id": 4077790170,
  "lat": 47.4480966,
  "lon": 11.7519236,
  "tags": {
    "natural": "sinkhole"
  }
},
{
  "type": "node",
  "id": 4097569070,
  "lat": 47.4054732,
  "lon": 11.8551502,
  "tags": {
    "natural": "sinkhole"
  }
},
{
  "type": "node",
  "id": 4127546707,
  "lat": 48.4887440,
  "lon": 9.9724898,
  "tags": {
    "natural": "sinkhole"
  }
},
{
  "type": "node",
  "id": 4170126164,
  "lat": 47.7013616,
  "lon": 12.1108773,
  "tags": {
    "description": "Doline",
    "natural": "sinkhole"
  }
},
{
  "type": "node",
  "id": 4194067703,
  "lat": 47.9863143,
  "lon": 8.8335548,
  "tags": {
    "natural": "sinkhole"
  }
},
{
  "type": "node",
  "id": 4195127595,
  "lat": 47.2966252,
  "lon": 6.2900442,
  "tags": {
    "name": "Gouffre du Seu",
    "natural": "sinkhole"
  }
},
{
  "type": "node",
  "id": 4241738625,
  "lat": 47.2913924,
  "lon": 7.3270331,
  "tags": {
    "natural": "sinkhole"
  }
},
{
  "type": "node",
  "id": 4252301340,
  "lat": 48.5354514,
  "lon": 9.8279469,
  "tags": {
    "natural": "sinkhole",
    "note": "Es ist nicht ganz sicher, dass es sich wirklich um eine Doline und nicht ein anderes Phaenomen handelt"
  }
},
{
  "type": "node",
  "id": 4262397926,
  "lat": 49.1828158,
  "lon": 13.4837376,
  "tags": {
    "natural": "sinkhole"
  }
},
{
  "type": "node",
  "id": 4278689307,
  "lat": 47.7551837,
  "lon": 12.2673150,
  "tags": {
    "description": "Doline",
    "natural": "sinkhole"
  }
},
{
  "type": "node",
  "id": 4278689308,
  "lat": 47.7558264,
  "lon": 12.2695083,
  "tags": {
    "description": "Doline",
    "natural": "sinkhole"
  }
},
{
  "type": "node",
  "id": 4278689309,
  "lat": 47.7562526,
  "lon": 12.2671156,
  "tags": {
    "description": "Doline",
    "natural": "sinkhole"
  }
},
{
  "type": "node",
  "id": 4278689310,
  "lat": 47.7562595,
  "lon": 12.2659397,
  "tags": {
    "description": "Doline",
    "natural": "sinkhole"
  }
},
{
  "type": "node",
  "id": 4278702098,
  "lat": 47.7562397,
  "lon": 12.2682864,
  "tags": {
    "description": "Doline",
    "natural": "sinkhole"
  }
},
{
  "type": "node",
  "id": 4278702099,
  "lat": 47.7564769,
  "lon": 12.2682353,
  "tags": {
    "description": "Doline",
    "natural": "sinkhole"
  }
},
{
  "type": "node",
  "id": 4278702100,
  "lat": 47.7564838,
  "lon": 12.2687976,
  "tags": {
    "description": "Doline",
    "natural": "sinkhole"
  }
},
{
  "type": "node",
  "id": 4278702101,
  "lat": 47.7564907,
  "lon": 12.2684091,
  "tags": {
    "description": "Doline",
    "natural": "sinkhole"
  }
},
{
  "type": "node",
  "id": 4278702102,
  "lat": 47.7566453,
  "lon": 12.2694827,
  "tags": {
    "description": "Doline",
    "natural": "sinkhole"
  }
},
{
  "type": "node",
  "id": 4278702103,
  "lat": 47.7566591,
  "lon": 12.2694163,
  "tags": {
    "description": "Doline",
    "natural": "sinkhole"
  }
},
{
  "type": "node",
  "id": 4278702104,
  "lat": 47.7566917,
  "lon": 12.2693345,
  "tags": {
    "description": "Doline",
    "natural": "sinkhole"
  }
},
{
  "type": "node",
  "id": 4294942560,
  "lat": 47.0519007,
  "lon": 11.4248848,
  "tags": {
    "natural": "sinkhole"
  }
},
{
  "type": "node",
  "id": 4302054462,
  "lat": 48.4201959,
  "lon": 8.8066841,
  "tags": {
    "natural": "sinkhole"
  }
},
{
  "type": "node",
  "id": 4302054463,
  "lat": 48.4199177,
  "lon": 8.8060712,
  "tags": {
    "natural": "sinkhole"
  }
},
{
  "type": "node",
  "id": 4302905298,
  "lat": 47.4575496,
  "lon": 13.5562408,
  "tags": {
    "natural": "sinkhole"
  }
},
{
  "type": "node",
  "id": 4328403866,
  "lat": 47.7569206,
  "lon": 12.2631073,
  "tags": {
    "description": "Doline",
    "natural": "sinkhole"
  }
},
{
  "type": "node",
  "id": 4338713908,
  "lat": 45.0165446,
  "lon": 5.5841786,
  "tags": {
    "natural": "sinkhole"
  }
},
{
  "type": "node",
  "id": 4343633373,
  "lat": 48.8004960,
  "lon": 10.0558871,
  "tags": {
    "natural": "sinkhole"
  }
},
{
  "type": "node",
  "id": 4353178971,
  "lat": 49.9632484,
  "lon": 12.4459996,
  "tags": {
    "description": "Graben- und Schachtführungen eines alten Bergwerks (Pinge)",
    "historic": "mine",
    "loc_name": "Pinge Güldenstern",
    "name": "Pinge Churfürst",
    "natural": "sinkhole",
    "tourism": "attraction"
  }
},
{
  "type": "node",
  "id": 4438231304,
  "lat": 47.0328456,
  "lon": 6.6796686,
  "tags": {
    "natural": "sinkhole"
  }
},
{
  "type": "node",
  "id": 4438231305,
  "lat": 47.0297710,
  "lon": 6.6739794,
  "tags": {
    "natural": "sinkhole"
  }
},
{
  "type": "node",
  "id": 4460620770,
  "lat": 47.7284513,
  "lon": 12.2275742,
  "tags": {
    "natural": "sinkhole"
  }
},
{
  "type": "node",
  "id": 4545127968,
  "lat": 45.8039181,
  "lon": 11.5062467,
  "tags": {
    "description": "Grande dolina carsica da crollo su calcari grigi del giurassico",
    "natural": "sinkhole"
  }
},
{
  "type": "node",
  "id": 4688297786,
  "lat": 45.7678708,
  "lon": 14.7004508,
  "tags": {
    "name": "Tentera",
    "natural": "sinkhole"
  }
},
{
  "type": "node",
  "id": 4712928416,
  "lat": 48.4643838,
  "lon": 5.8800862,
  "tags": {
    "name": "Trou du Fond de la Souche",
    "natural": "sinkhole",
    "ref:BRGM": "LORAW0013432",
    "refitted": "yes",
    "sinkhole": "ponor"
  }
},
{
  "type": "node",
  "id": 4716822910,
  "lat": 49.6295256,
  "lon": 11.5979303,
  "tags": {
    "name": "Lösungsdoline",
    "natural": "sinkhole"
  }
},
{
  "type": "node",
  "id": 4757213636,
  "lat": 46.7034915,
  "lon": 14.3001403,
  "tags": {
    "natural": "sinkhole"
  }
},
{
  "type": "node",
  "id": 4812926618,
  "lat": 47.5924705,
  "lon": 12.1967316,
  "tags": {
    "natural": "sinkhole"
  }
},
{
  "type": "node",
  "id": 4812956650,
  "lat": 47.4291995,
  "lon": 7.5631747,
  "tags": {
    "name": "Schellbächli Ponor",
    "natural": "sinkhole"
  }
},
{
  "type": "node",
  "id": 4816017017,
  "lat": 45.7098951,
  "lon": 13.7575969,
  "tags": {
    "name": "Koprivnik",
    "natural": "sinkhole"
  }
},
{
  "type": "node",
  "id": 4872231775,
  "lat": 46.2719727,
  "lon": 8.3012650,
  "tags": {
    "name": "Marmitte di Croveo",
    "natural": "sinkhole",
    "tourism": "attraction"
  }
},
{
  "type": "node",
  "id": 4875738384,
  "lat": 47.5850131,
  "lon": 14.9980397,
  "tags": {
    "natural": "sinkhole"
  }
},
{
  "type": "node",
  "id": 4875738385,
  "lat": 47.5864323,
  "lon": 14.9991348,
  "tags": {
    "natural": "sinkhole"
  }
},
{
  "type": "node",
  "id": 4902491618,
  "lat": 48.3804167,
  "lon": 6.0761074,
  "tags": {
    "natural": "sinkhole"
  }
},
{
  "type": "node",
  "id": 4937498758,
  "lat": 48.5296268,
  "lon": 9.0363567,
  "tags": {
    "natural": "sinkhole"
  }
},
{
  "type": "node",
  "id": 5031115050,
  "lat": 48.3949853,
  "lon": 8.8665692,
  "tags": {
    "name": "Doline",
    "natural": "sinkhole"
  }
},
{
  "type": "node",
  "id": 5055388123,
  "lat": 47.8729913,
  "lon": 13.8361404,
  "tags": {
    "natural": "sinkhole"
  }
},
{
  "type": "node",
  "id": 5055450923,
  "lat": 47.8731610,
  "lon": 13.8358062,
  "tags": {
    "natural": "sinkhole"
  }
},
{
  "type": "node",
  "id": 5055450924,
  "lat": 47.8729411,
  "lon": 13.8360577,
  "tags": {
    "natural": "sinkhole"
  }
},
{
  "type": "node",
  "id": 5055450925,
  "lat": 47.8716570,
  "lon": 13.8336477,
  "tags": {
    "natural": "sinkhole"
  }
},
{
  "type": "node",
  "id": 5055451321,
  "lat": 47.8728910,
  "lon": 13.8359199,
  "tags": {
    "natural": "sinkhole"
  }
},
{
  "type": "node",
  "id": 5073743881,
  "lat": 45.9588473,
  "lon": 9.5065749,
  "tags": {
    "name": "Dolina La Coldera",
    "natural": "sinkhole"
  }
},
{
  "type": "node",
  "id": 5086383759,
  "lat": 49.6446961,
  "lon": 11.3069172,
  "tags": {
    "natural": "sinkhole",
    "sinkhole:ref": "6333/D037-3"
  }
},
{
  "type": "node",
  "id": 5086404205,
  "lat": 49.6086782,
  "lon": 11.6089179,
  "tags": {
    "name": "Schelmbachponor",
    "name_1": "Sportplatzponor",
    "natural": "sinkhole",
    "sinkhole:ref": "6335/D069"
  }
},
{
  "type": "node",
  "id": 5110725437,
  "lat": 47.6718161,
  "lon": 13.7987383,
  "tags": {
    "natural": "sinkhole",
    "note": "Doline",
    "source": "geoimage.at"
  }
},
{
  "type": "node",
  "id": 5110725438,
  "lat": 47.6706524,
  "lon": 13.7991227,
  "tags": {
    "natural": "sinkhole",
    "note": "Doline",
    "source": "geoimage.at"
  }
},
{
  "type": "node",
  "id": 5110725439,
  "lat": 47.6691705,
  "lon": 13.7995912,
  "tags": {
    "natural": "sinkhole",
    "note": "Doline",
    "source": "geoimage.at"
  }
},
{
  "type": "node",
  "id": 5110725440,
  "lat": 47.6686638,
  "lon": 13.7996135,
  "tags": {
    "natural": "sinkhole",
    "note": "Doline",
    "source": "geoimage.at"
  }
},
{
  "type": "node",
  "id": 5110725441,
  "lat": 47.6684603,
  "lon": 13.7996216,
  "tags": {
    "natural": "sinkhole",
    "note": "Doline",
    "source": "geoimage.at"
  }
},
{
  "type": "node",
  "id": 5110725442,
  "lat": 47.6684330,
  "lon": 13.7997088,
  "tags": {
    "natural": "sinkhole",
    "note": "Doline",
    "source": "geoimage.at"
  }
},
{
  "type": "node",
  "id": 5110725443,
  "lat": 47.6625095,
  "lon": 13.7884227,
  "tags": {
    "natural": "sinkhole",
    "note": "Doline",
    "source": "geoimage.at"
  }
},
{
  "type": "node",
  "id": 5110732815,
  "lat": 47.6459544,
  "lon": 13.8240997,
  "tags": {
    "natural": "sinkhole",
    "note": "Doline",
    "source": "geoimage.at"
  }
},
{
  "type": "node",
  "id": 5110732816,
  "lat": 47.6453902,
  "lon": 13.8248242,
  "tags": {
    "natural": "sinkhole",
    "note": "Doline",
    "source": "geoimage.at"
  }
},
{
  "type": "node",
  "id": 5110732817,
  "lat": 47.6454116,
  "lon": 13.8249499,
  "tags": {
    "natural": "sinkhole",
    "note": "Doline",
    "source": "geoimage.at"
  }
},
{
  "type": "node",
  "id": 5110732818,
  "lat": 47.6453067,
  "lon": 13.8233916,
  "tags": {
    "natural": "sinkhole",
    "note": "Doline",
    "source": "geoimage.at"
  }
},
{
  "type": "node",
  "id": 5110732819,
  "lat": 47.6449180,
  "lon": 13.8234399,
  "tags": {
    "natural": "sinkhole",
    "note": "Doline",
    "source": "geoimage.at"
  }
},
{
  "type": "node",
  "id": 5110732820,
  "lat": 47.6434592,
  "lon": 13.8185094,
  "tags": {
    "natural": "sinkhole",
    "note": "Doline",
    "source": "geoimage.at"
  }
},
{
  "type": "node",
  "id": 5110733321,
  "lat": 47.6440861,
  "lon": 13.8185536,
  "tags": {
    "natural": "sinkhole",
    "note": "Doline",
    "source": "geoimage.at"
  }
},
{
  "type": "node",
  "id": 5110733322,
  "lat": 47.6434114,
  "lon": 13.8180971,
  "tags": {
    "natural": "sinkhole",
    "note": "Doline",
    "source": "geoimage.at"
  }
},
{
  "type": "node",
  "id": 5122107166,
  "lat": 48.4114568,
  "lon": 9.2288580,
  "tags": {
    "natural": "sinkhole"
  }
},
{
  "type": "node",
  "id": 5122107689,
  "lat": 48.4113674,
  "lon": 9.2197588,
  "tags": {
    "natural": "sinkhole"
  }
},
{
  "type": "node",
  "id": 5135826076,
  "lat": 45.8154566,
  "lon": 14.2654393,
  "tags": {
    "name": "Unška koliševka",
    "natural": "sinkhole"
  }
},
{
  "type": "node",
  "id": 5195905054,
  "lat": 47.1422838,
  "lon": 9.4012053,
  "tags": {
    "natural": "sinkhole"
  }
},
{
  "type": "node",
  "id": 5206173818,
  "lat": 45.7126195,
  "lon": 13.7202024,
  "tags": {
    "natural": "sinkhole"
  }
},
{
  "type": "node",
  "id": 5273856127,
  "lat": 48.0991087,
  "lon": 9.1243567,
  "tags": {
    "name": "Eulengrube",
    "natural": "sinkhole",
    "natural_protection": "natural_monument",
    "sinkhole": "doline",
    "wikidata": "Q18286868"
  }
},
{
  "type": "node",
  "id": 5305099228,
  "lat": 47.7202421,
  "lon": 12.3859833,
  "tags": {
    "natural": "sinkhole",
    "note": "So eine Art Doline, d.h. deutliche Bodenabsenkung"
  }
},
{
  "type": "node",
  "id": 5321682220,
  "lat": 45.7529196,
  "lon": 13.6816584,
  "tags": {
    "name": "Lišček",
    "name:it": "Dolina della Selce",
    "natural": "sinkhole"
  }
},
{
  "type": "node",
  "id": 5325829382,
  "lat": 48.2615128,
  "lon": 6.0978627,
  "tags": {
    "natural": "sinkhole",
    "sinkhole": "ponor"
  }
},
{
  "type": "node",
  "id": 5326951644,
  "lat": 46.3974244,
  "lon": 5.9821415,
  "tags": {
    "natural": "sinkhole",
    "refitted": "yes",
    "sinkhole": "ponor"
  }
},
{
  "type": "node",
  "id": 5326951656,
  "lat": 46.3949049,
  "lon": 5.9791964,
  "tags": {
    "natural": "sinkhole",
    "refitted": "yes",
    "sinkhole": "ponor"
  }
},
{
  "type": "node",
  "id": 5328967425,
  "lat": 48.3357161,
  "lon": 6.1400851,
  "tags": {
    "natural": "sinkhole",
    "sinkhole": "doline"
  }
},
{
  "type": "node",
  "id": 5349873281,
  "lat": 46.2603806,
  "lon": 12.9115353,
  "tags": {
    "name": "Foiba",
    "natural": "sinkhole",
    "sinkhole": "doline",
    "source": "RAFVG CTRN5000_Orografia_top_shp_6708"
  }
},
{
  "type": "node",
  "id": 5352581819,
  "lat": 48.1695988,
  "lon": 6.1176842,
  "tags": {
    "natural": "sinkhole",
    "sinkhole": "estavelle"
  }
},
{
  "type": "node",
  "id": 5352581821,
  "lat": 48.1702696,
  "lon": 6.1171482,
  "tags": {
    "name": "Trou des Pendus",
    "natural": "sinkhole",
    "sinkhole": "ponor"
  }
},
{
  "type": "node",
  "id": 5352581875,
  "lat": 48.1703707,
  "lon": 6.1058557,
  "tags": {
    "natural": "sinkhole",
    "refitted": "yes",
    "sinkhole": "ponor"
  }
},
{
  "type": "node",
  "id": 5435692057,
  "lat": 48.5870904,
  "lon": 5.9793869,
  "tags": {
    "natural": "sinkhole",
    "sinkhole": "ponor"
  }
},
{
  "type": "node",
  "id": 5527904237,
  "lat": 46.5756286,
  "lon": 7.2250927,
  "tags": {
    "natural": "sinkhole"
  }
},
{
  "type": "node",
  "id": 5527904238,
  "lat": 46.5759444,
  "lon": 7.2247370,
  "tags": {
    "natural": "sinkhole"
  }
},
{
  "type": "node",
  "id": 5527904239,
  "lat": 46.5764586,
  "lon": 7.2240784,
  "tags": {
    "natural": "sinkhole"
  }
},
{
  "type": "node",
  "id": 5527904240,
  "lat": 46.5761484,
  "lon": 7.2267149,
  "tags": {
    "natural": "sinkhole"
  }
},
{
  "type": "node",
  "id": 5527904241,
  "lat": 46.5758605,
  "lon": 7.2261111,
  "tags": {
    "natural": "sinkhole"
  }
},
{
  "type": "node",
  "id": 5543122387,
  "lat": 46.3727981,
  "lon": 13.4660733,
  "tags": {
    "ele": "1784",
    "name": "Conca Prevala / V Kotlu",
    "name:it": "Conca Prevala",
    "name:sl": "V Kotlu",
    "natural": "sinkhole",
    "source:name": "Tuma"
  }
},
{
  "type": "node",
  "id": 5551463729,
  "lat": 46.2815713,
  "lon": 5.4818049,
  "tags": {
    "natural": "sinkhole",
    "sinkhole": "ponor"
  }
},
{
  "type": "node",
  "id": 5597386268,
  "lat": 46.5299790,
  "lon": 5.5745175,
  "tags": {
    "natural": "sinkhole",
    "sinkhole": "estavelle"
  }
},
{
  "type": "node",
  "id": 5597386270,
  "lat": 46.5300039,
  "lon": 5.5727962,
  "tags": {
    "name": "Entonnoir de Moutonne",
    "natural": "sinkhole",
    "sinkhole": "estavelle",
    "source": "http://ficheinfoterre.brgm.fr/Notices/0604N.pdf (pages 22-23)"
  }
},
{
  "type": "node",
  "id": 5597386307,
  "lat": 46.5348439,
  "lon": 5.5785884,
  "tags": {
    "name": "Entonnoir de Senay",
    "natural": "sinkhole",
    "sinkhole": "estavelle",
    "source": "http://fr.calameo.com/read/00031166546d243a450b8"
  }
},
{
  "type": "node",
  "id": 5597386420,
  "lat": 46.5156235,
  "lon": 5.5646516,
  "tags": {
    "name": "Entonnoir du Lac",
    "natural": "sinkhole",
    "sinkhole": "estavelle",
    "source": "http://fr.calameo.com/read/00031166546d243a450b8"
  }
},
{
  "type": "node",
  "id": 5597386422,
  "lat": 46.5154574,
  "lon": 5.5556917,
  "tags": {
    "name": "Entonnoir des Fosses",
    "natural": "sinkhole",
    "sinkhole": "estavelle",
    "source": "http://fr.calameo.com/read/00031166546d243a450b8"
  }
},
{
  "type": "node",
  "id": 5623228096,
  "lat": 45.7887336,
  "lon": 14.1932078,
  "tags": {
    "name": "Ponor Pivke",
    "natural": "sinkhole"
  }
},
{
  "type": "node",
  "id": 5760549835,
  "lat": 46.5308574,
  "lon": 5.4982080,
  "tags": {
    "natural": "sinkhole",
    "sinkhole": "estavelle"
  }
},
{
  "type": "node",
  "id": 5761329338,
  "lat": 49.4448746,
  "lon": 9.6768793,
  "tags": {
    "geological": "sinkhole",
    "natural": "sinkhole"
  }
},
{
  "type": "node",
  "id": 5761474361,
  "lat": 49.4401911,
  "lon": 9.6759084,
  "tags": {
    "geological": "sinkhole",
    "natural": "sinkhole"
  }
},
{
  "type": "node",
  "id": 5865520685,
  "lat": 46.5165766,
  "lon": 9.1046713,
  "tags": {
    "altitude": "2550m",
    "description": "Mountain lake",
    "name": "Lake Eszti",
    "natural": "sinkhole"
  }
},
{
  "type": "node",
  "id": 5873326834,
  "lat": 46.8582712,
  "lon": 9.1160472,
  "tags": {
    "natural": "sinkhole"
  }
},
{
  "type": "node",
  "id": 5887191231,
  "lat": 45.9477897,
  "lon": 10.1517615,
  "tags": {
    "natural": "sinkhole",
    "sinkhole": "doline"
  }
},
{
  "type": "node",
  "id": 5887191238,
  "lat": 45.9478415,
  "lon": 10.1521632,
  "tags": {
    "natural": "sinkhole",
    "sinkhole": "doline"
  }
},
{
  "type": "node",
  "id": 5887191240,
  "lat": 45.9488446,
  "lon": 10.1523492,
  "tags": {
    "natural": "sinkhole",
    "sinkhole": "doline"
  }
},
{
  "type": "node",
  "id": 5887191245,
  "lat": 45.9478835,
  "lon": 10.1524601,
  "tags": {
    "natural": "sinkhole",
    "sinkhole": "doline"
  }
},
{
  "type": "node",
  "id": 5906518889,
  "lat": 47.1348775,
  "lon": 7.0626372,
  "tags": {
    "natural": "sinkhole"
  }
},
{
  "type": "node",
  "id": 5906518890,
  "lat": 47.1351257,
  "lon": 7.0641178,
  "tags": {
    "natural": "sinkhole"
  }
},
{
  "type": "node",
  "id": 5906518891,
  "lat": 47.1356037,
  "lon": 7.0653784,
  "tags": {
    "natural": "sinkhole"
  }
},
{
  "type": "node",
  "id": 5906518892,
  "lat": 47.1354468,
  "lon": 7.0652229,
  "tags": {
    "natural": "sinkhole"
  }
},
{
  "type": "node",
  "id": 5906518893,
  "lat": 47.1357606,
  "lon": 7.0661133,
  "tags": {
    "natural": "sinkhole"
  }
},
{
  "type": "node",
  "id": 5906518894,
  "lat": 47.1364686,
  "lon": 7.0683959,
  "tags": {
    "natural": "sinkhole"
  }
},
{
  "type": "node",
  "id": 5906518895,
  "lat": 47.1364886,
  "lon": 7.0687151,
  "tags": {
    "natural": "sinkhole"
  }
},
{
  "type": "node",
  "id": 5906518896,
  "lat": 47.1369320,
  "lon": 7.0665157,
  "tags": {
    "natural": "sinkhole"
  }
},
{
  "type": "node",
  "id": 5906518897,
  "lat": 47.1373973,
  "lon": 7.0682967,
  "tags": {
    "natural": "sinkhole"
  }
},
{
  "type": "node",
  "id": 5906518898,
  "lat": 47.1371491,
  "lon": 7.0675001,
  "tags": {
    "natural": "sinkhole"
  }
},
{
  "type": "node",
  "id": 5924241223,
  "lat": 46.5539136,
  "lon": 5.5665466,
  "tags": {
    "natural": "sinkhole"
  }
},
{
  "type": "node",
  "id": 5924241225,
  "lat": 46.5526280,
  "lon": 5.5666727,
  "tags": {
    "natural": "sinkhole"
  }
},
{
  "type": "node",
  "id": 5924241226,
  "lat": 46.5525690,
  "lon": 5.5660504,
  "tags": {
    "natural": "sinkhole"
  }
},
{
  "type": "node",
  "id": 5924241227,
  "lat": 46.5526760,
  "lon": 5.5659914,
  "tags": {
    "natural": "sinkhole"
  }
},
{
  "type": "node",
  "id": 5924241230,
  "lat": 46.5508720,
  "lon": 5.5673432,
  "tags": {
    "natural": "sinkhole"
  }
},
{
  "type": "node",
  "id": 5924241231,
  "lat": 46.5510602,
  "lon": 5.5671662,
  "tags": {
    "natural": "sinkhole"
  }
},
{
  "type": "node",
  "id": 5924241232,
  "lat": 46.5512889,
  "lon": 5.5669624,
  "tags": {
    "natural": "sinkhole"
  }
},
{
  "type": "node",
  "id": 5924241233,
  "lat": 46.5513387,
  "lon": 5.5670536,
  "tags": {
    "natural": "sinkhole"
  }
},
{
  "type": "node",
  "id": 5924241234,
  "lat": 46.5515250,
  "lon": 5.5669624,
  "tags": {
    "natural": "sinkhole"
  }
},
{
  "type": "node",
  "id": 5924241235,
  "lat": 46.5514512,
  "lon": 5.5668792,
  "tags": {
    "natural": "sinkhole"
  }
},
{
  "type": "node",
  "id": 5924241236,
  "lat": 46.5496693,
  "lon": 5.5667344,
  "tags": {
    "natural": "sinkhole"
  }
},
{
  "type": "node",
  "id": 5934882011,
  "lat": 46.5209557,
  "lon": 5.5500054,
  "tags": {
    "natural": "sinkhole"
  }
},
{
  "type": "node",
  "id": 5998381912,
  "lat": 46.5297880,
  "lon": 5.5720331,
  "tags": {
    "natural": "sinkhole"
  }
},
{
  "type": "node",
  "id": 6034144842,
  "lat": 47.9131277,
  "lon": 8.7614196,
  "tags": {
    "name": "Michelsloch",
    "natural": "sinkhole",
    "sinkhole": "doline"
  }
},
{
  "type": "node",
  "id": 6135350479,
  "lat": 47.1024073,
  "lon": 13.2477039,
  "tags": {
    "natural": "sinkhole",
    "sinkhole": "doline"
  }
},
{
  "type": "node",
  "id": 6166378186,
  "lat": 48.3568152,
  "lon": 6.1396225,
  "tags": {
    "natural": "sinkhole",
    "sinkhole": "doline"
  }
},
{
  "type": "node",
  "id": 6166453760,
  "lat": 47.6523912,
  "lon": 12.5124497,
  "tags": {
    "natural": "sinkhole"
  }
},
{
  "type": "node",
  "id": 6168289291,
  "lat": 45.8051091,
  "lon": 8.3609698,
  "tags": {
    "name": "Lanca di Struppero",
    "natural": "sinkhole"
  }
},
{
  "type": "node",
  "id": 6177334598,
  "lat": 46.8232973,
  "lon": 6.1700946,
  "tags": {
    "name": "Le creux au lard",
    "natural": "sinkhole"
  }
},
{
  "type": "node",
  "id": 6193759378,
  "lat": 45.8608017,
  "lon": 13.6498003,
  "tags": {
    "name": "GRAZER",
    "natural": "sinkhole",
    "old_name": "GRAZER"
  }
},
{
  "type": "node",
  "id": 6193792015,
  "lat": 45.8656006,
  "lon": 13.6567001,
  "tags": {
    "name": "TRICHTER",
    "natural": "sinkhole",
    "old_name": "TRICHTER"
  }
},
{
  "type": "node",
  "id": 6231037774,
  "lat": 45.8439080,
  "lon": 13.6323892,
  "tags": {
    "name": "Bossata",
    "natural": "sinkhole",
    "sinkhole": "doline"
  }
},
{
  "type": "node",
  "id": 6231061259,
  "lat": 45.8525714,
  "lon": 13.6328546,
  "tags": {
    "name": "Gelb",
    "natural": "sinkhole"
  }
},
{
  "type": "node",
  "id": 6236757459,
  "lat": 45.8542824,
  "lon": 13.6355399,
  "tags": {
    "name": "Wildkatzen",
    "natural": "sinkhole"
  }
},
{
  "type": "node",
  "id": 6236758691,
  "lat": 45.8548750,
  "lon": 13.6352292,
  "tags": {
    "name": "Löwen",
    "natural": "sinkhole"
  }
},
{
  "type": "node",
  "id": 6236930307,
  "lat": 45.8623757,
  "lon": 13.6209746,
  "tags": {
    "name": "Monumento",
    "natural": "sinkhole"
  }
},
{
  "type": "node",
  "id": 6236987221,
  "lat": 45.8597604,
  "lon": 13.6611319,
  "tags": {
    "name": "Makovicka",
    "natural": "sinkhole"
  }
},
{
  "type": "node",
  "id": 6236990885,
  "lat": 45.8604247,
  "lon": 13.6611320,
  "tags": {
    "name": "Klein Eisner Bubna",
    "natural": "sinkhole"
  }
},
{
  "type": "node",
  "id": 6236993075,
  "lat": 45.8610693,
  "lon": 13.6613227,
  "tags": {
    "name": "Eisner Bubna",
    "natural": "sinkhole"
  }
},
{
  "type": "node",
  "id": 6237001597,
  "lat": 45.8619029,
  "lon": 13.6634201,
  "tags": {
    "name": "Kärner",
    "natural": "sinkhole"
  }
},
{
  "type": "node",
  "id": 6237016642,
  "lat": 45.8547270,
  "lon": 13.6304647,
  "tags": {
    "name": "Mist",
    "natural": "sinkhole"
  }
},
{
  "type": "node",
  "id": 6237021120,
  "lat": 45.8532763,
  "lon": 13.6292774,
  "tags": {
    "name": "Masken",
    "natural": "sinkhole"
  }
},
{
  "type": "node",
  "id": 6237024095,
  "lat": 45.8537310,
  "lon": 13.6294981,
  "tags": {
    "name": "Kino",
    "natural": "sinkhole"
  }
},
{
  "type": "node",
  "id": 6237044347,
  "lat": 45.8551646,
  "lon": 13.6266260,
  "tags": {
    "name": "Kapellen",
    "natural": "sinkhole"
  }
},
{
  "type": "node",
  "id": 6237106198,
  "lat": 45.8555985,
  "lon": 13.6263126,
  "tags": {
    "name": "Gyuri",
    "natural": "sinkhole"
  }
},
{
  "type": "node",
  "id": 6237108469,
  "lat": 45.8558069,
  "lon": 13.6238152,
  "tags": {
    "name": "Brunnen",
    "natural": "sinkhole"
  }
},
{
  "type": "node",
  "id": 6237108995,
  "lat": 45.8558688,
  "lon": 13.6250379,
  "tags": {
    "name": "Küchen",
    "natural": "sinkhole"
  }
},
{
  "type": "node",
  "id": 6237111899,
  "lat": 45.8556330,
  "lon": 13.6244286,
  "tags": {
    "name": "Latrinen",
    "natural": "sinkhole"
  }
},
{
  "type": "node",
  "id": 6237130418,
  "lat": 45.8541166,
  "lon": 13.6239262,
  "tags": {
    "name": "Husaren",
    "natural": "sinkhole"
  }
},
{
  "type": "node",
  "id": 6237135116,
  "lat": 45.8530977,
  "lon": 13.6235716,
  "tags": {
    "name": "Jäger",
    "natural": "sinkhole"
  }
},
{
  "type": "node",
  "id": 6237136359,
  "lat": 45.8532804,
  "lon": 13.6254439,
  "tags": {
    "name": "Dragoner",
    "natural": "sinkhole"
  }
},
{
  "type": "node",
  "id": 6237140769,
  "lat": 45.8540706,
  "lon": 13.6253649,
  "tags": {
    "name": "Ulanen",
    "natural": "sinkhole"
  }
},
{
  "type": "node",
  "id": 6237154193,
  "lat": 45.8536279,
  "lon": 13.6261771,
  "tags": {
    "name": "Wachtmeister",
    "natural": "sinkhole"
  }
},
{
  "type": "node",
  "id": 6237158612,
  "lat": 45.8553680,
  "lon": 13.6294280,
  "tags": {
    "name": "Schmied",
    "natural": "sinkhole"
  }
},
{
  "type": "node",
  "id": 6237555085,
  "lat": 45.8619607,
  "lon": 13.6500431,
  "tags": {
    "name": "Triester",
    "natural": "sinkhole"
  }
},
{
  "type": "node",
  "id": 6238801316,
  "lat": 45.8518094,
  "lon": 13.6350085,
  "tags": {
    "name": "Hasen",
    "natural": "sinkhole"
  }
},
{
  "type": "node",
  "id": 6238801807,
  "lat": 45.8522546,
  "lon": 13.6355774,
  "tags": {
    "name": "Reh",
    "natural": "sinkhole"
  }
},
{
  "type": "node",
  "id": 6238802204,
  "lat": 45.8515656,
  "lon": 13.6371156,
  "tags": {
    "name": "Eber",
    "natural": "sinkhole"
  }
},
{
  "type": "node",
  "id": 6238802897,
  "lat": 45.8527391,
  "lon": 13.6363431,
  "tags": {
    "name": "Hirsch",
    "natural": "sinkhole"
  }
},
{
  "type": "node",
  "id": 6238804088,
  "lat": 45.8530231,
  "lon": 13.6372794,
  "tags": {
    "name": "Fuchs",
    "natural": "sinkhole"
  }
},
{
  "type": "node",
  "id": 6238815770,
  "lat": 45.8550219,
  "lon": 13.6344115,
  "tags": {
    "name": "Tiger",
    "natural": "sinkhole"
  }
},
{
  "type": "node",
  "id": 6238837630,
  "lat": 45.8545185,
  "lon": 13.6381624,
  "tags": {
    "name": "Oliven",
    "natural": "sinkhole"
  }
},
{
  "type": "node",
  "id": 6238838112,
  "lat": 45.8531174,
  "lon": 13.6383115,
  "tags": {
    "name": "Trichter",
    "natural": "sinkhole"
  }
},
{
  "type": "node",
  "id": 6238840655,
  "lat": 45.8537705,
  "lon": 13.6403286,
  "tags": {
    "name": "Ellbogen",
    "natural": "sinkhole"
  }
},
{
  "type": "node",
  "id": 6238842397,
  "lat": 45.8533986,
  "lon": 13.6408039,
  "tags": {
    "name": "Egoismo",
    "natural": "sinkhole"
  }
},
{
  "type": "node",
  "id": 6238849585,
  "lat": 45.8508389,
  "lon": 13.6398962,
  "tags": {
    "name": "Assalto",
    "natural": "sinkhole"
  }
},
{
  "type": "node",
  "id": 6238852289,
  "lat": 45.8517987,
  "lon": 13.6405030,
  "tags": {
    "name": "Bravo",
    "natural": "sinkhole"
  }
},
{
  "type": "node",
  "id": 6238864743,
  "lat": 45.8556462,
  "lon": 13.6358994,
  "tags": {
    "name": "Wildkatzen",
    "natural": "sinkhole"
  }
},
{
  "type": "node",
  "id": 6238874869,
  "lat": 45.8669367,
  "lon": 13.6367824,
  "tags": {
    "name": "Fajti",
    "natural": "sinkhole"
  }
},
{
  "type": "node",
  "id": 6238876194,
  "lat": 45.8664669,
  "lon": 13.6358278,
  "tags": {
    "name": "Kröte",
    "natural": "sinkhole"
  }
},
{
  "type": "node",
  "id": 6243161866,
  "lat": 45.8291921,
  "lon": 13.5950220,
  "tags": {
    "name": "Hindenburg (Alfred)",
    "natural": "sinkhole"
  }
},
{
  "type": "node",
  "id": 6243170961,
  "lat": 45.8279753,
  "lon": 13.5939186,
  "tags": {
    "name": "Neger",
    "natural": "sinkhole"
  }
},
{
  "type": "node",
  "id": 6243172241,
  "lat": 45.8274627,
  "lon": 13.5969935,
  "tags": {
    "name": "Flieger",
    "natural": "sinkhole"
  }
},
{
  "type": "node",
  "id": 6243192343,
  "lat": 45.8279245,
  "lon": 13.5950505,
  "tags": {
    "name": "Karl",
    "natural": "sinkhole"
  }
},
{
  "type": "node",
  "id": 6243195627,
  "lat": 45.8286601,
  "lon": 13.5916247,
  "tags": {
    "name": "Körner",
    "natural": "sinkhole"
  }
},
{
  "type": "node",
  "id": 6243198431,
  "lat": 45.8290013,
  "lon": 13.5896747,
  "tags": {
    "name": "Schwaun",
    "natural": "sinkhole"
  }
},
{
  "type": "node",
  "id": 6243199709,
  "lat": 45.8296761,
  "lon": 13.5897338,
  "tags": {
    "name": "Feld",
    "natural": "sinkhole"
  }
},
{
  "type": "node",
  "id": 6243203656,
  "lat": 45.8300873,
  "lon": 13.5899161,
  "tags": {
    "name": "Mörser",
    "natural": "sinkhole"
  }
},
{
  "type": "node",
  "id": 6243227800,
  "lat": 45.8307983,
  "lon": 13.5875008,
  "tags": {
    "name": "Steinbruch",
    "natural": "sinkhole"
  }
},
{
  "type": "node",
  "id": 6243229132,
  "lat": 45.8311242,
  "lon": 13.5877580,
  "tags": {
    "name": "Kremser",
    "natural": "sinkhole"
  }
},
{
  "type": "node",
  "id": 6243232890,
  "lat": 45.8272365,
  "lon": 13.5899234,
  "tags": {
    "name": "Adria",
    "natural": "sinkhole"
  }
},
{
  "type": "node",
  "id": 6243245828,
  "lat": 45.8260087,
  "lon": 13.5911762,
  "tags": {
    "name": "Steinhof",
    "natural": "sinkhole"
  }
},
{
  "type": "node",
  "id": 6243255375,
  "lat": 45.8270430,
  "lon": 13.5918590,
  "tags": {
    "name": "Wurm",
    "natural": "sinkhole"
  }
},
{
  "type": "node",
  "id": 6243257979,
  "lat": 45.8266990,
  "lon": 13.5958486,
  "tags": {
    "name": "Fritz",
    "natural": "sinkhole"
  }
},
{
  "type": "node",
  "id": 6243260519,
  "lat": 45.8260493,
  "lon": 13.5960577,
  "tags": {
    "name": "Kraus",
    "natural": "sinkhole"
  }
},
{
  "type": "node",
  "id": 6243280755,
  "lat": 45.8291319,
  "lon": 13.5940626,
  "tags": {
    "name": "Teufels",
    "natural": "sinkhole"
  }
},
{
  "type": "node",
  "id": 6243301640,
  "lat": 45.8294312,
  "lon": 13.5982744,
  "tags": {
    "name": "Erd",
    "natural": "sinkhole"
  }
},
{
  "type": "node",
  "id": 6243316416,
  "lat": 45.8369258,
  "lon": 13.6265415,
  "tags": {
    "name": "Kater",
    "natural": "sinkhole"
  }
},
{
  "type": "node",
  "id": 6245033046,
  "lat": 45.8477255,
  "lon": 13.6133829,
  "tags": {
    "name": "Siena",
    "natural": "sinkhole"
  }
},
{
  "type": "node",
  "id": 6248250408,
  "lat": 45.8552874,
  "lon": 13.6542727,
  "tags": {
    "name": "Globočnik",
    "natural": "sinkhole"
  }
},
{
  "type": "node",
  "id": 6248255392,
  "lat": 45.8558106,
  "lon": 13.6500385,
  "tags": {
    "name": "Eisner",
    "natural": "sinkhole"
  }
},
{
  "type": "node",
  "id": 6248257120,
  "lat": 45.8559976,
  "lon": 13.6490601,
  "tags": {
    "name": "Jenö I",
    "natural": "sinkhole"
  }
},
{
  "type": "node",
  "id": 6248263185,
  "lat": 45.8549239,
  "lon": 13.6490556,
  "tags": {
    "name": "Jenö III",
    "natural": "sinkhole"
  }
},
{
  "type": "node",
  "id": 6248269539,
  "lat": 45.8554524,
  "lon": 13.6491114,
  "tags": {
    "name": "Jenö II",
    "natural": "sinkhole"
  }
},
{
  "type": "node",
  "id": 6248293643,
  "lat": 45.8542233,
  "lon": 13.6535524,
  "tags": {
    "name": "Krauthacker I",
    "natural": "sinkhole"
  }
},
{
  "type": "node",
  "id": 6248298410,
  "lat": 45.8541920,
  "lon": 13.6539304,
  "tags": {
    "name": "Krauthacker II",
    "natural": "sinkhole"
  }
},
{
  "type": "node",
  "id": 6248304714,
  "lat": 45.8527222,
  "lon": 13.6489857,
  "tags": {
    "name": "Bandi",
    "natural": "sinkhole"
  }
},
{
  "type": "node",
  "id": 6252196191,
  "lat": 45.8701488,
  "lon": 13.6414205,
  "tags": {
    "name": "Acqua",
    "natural": "sinkhole"
  }
},
{
  "type": "node",
  "id": 6252197042,
  "lat": 45.8691062,
  "lon": 13.6398570,
  "tags": {
    "name": "Due Comandi",
    "natural": "sinkhole"
  }
},
{
  "type": "node",
  "id": 6252387993,
  "lat": 45.8701796,
  "lon": 13.6277018,
  "tags": {
    "name": "Sicilia",
    "natural": "sinkhole"
  }
},
{
  "type": "node",
  "id": 6252390158,
  "lat": 45.8723367,
  "lon": 13.6240861,
  "tags": {
    "name": "Velichi",
    "natural": "sinkhole"
  }
},
{
  "type": "node",
  "id": 6252394606,
  "lat": 45.8716405,
  "lon": 13.6258087,
  "tags": {
    "name": "D' Annunzio",
    "natural": "sinkhole"
  }
},
{
  "type": "node",
  "id": 6252395254,
  "lat": 45.8715877,
  "lon": 13.6244691,
  "tags": {
    "name": "Cimitero",
    "natural": "sinkhole"
  }
},
{
  "type": "node",
  "id": 6252400364,
  "lat": 45.8707561,
  "lon": 13.6237850,
  "tags": {
    "name": "Bombardieri",
    "natural": "sinkhole"
  }
},
{
  "type": "node",
  "id": 6252401144,
  "lat": 45.8699030,
  "lon": 13.6262930,
  "tags": {
    "name": "Albero",
    "natural": "sinkhole"
  }
},
{
  "type": "node",
  "id": 6252405121,
  "lat": 45.8696548,
  "lon": 13.6244593,
  "tags": {
    "name": "Austriaca",
    "natural": "sinkhole"
  }
},
{
  "type": "node",
  "id": 6252443642,
  "lat": 45.8630945,
  "lon": 13.6209647,
  "tags": {
    "name": "Bar",
    "natural": "sinkhole"
  }
},
{
  "type": "node",
  "id": 6252444572,
  "lat": 45.8607471,
  "lon": 13.6225330,
  "tags": {
    "name": "Giannico",
    "natural": "sinkhole"
  }
},
{
  "type": "node",
  "id": 6252446933,
  "lat": 45.8619462,
  "lon": 13.6221415,
  "tags": {
    "name": "Fagiuola",
    "natural": "sinkhole"
  }
},
{
  "type": "node",
  "id": 6252458850,
  "lat": 45.8608466,
  "lon": 13.6245100,
  "tags": {
    "name": "Acacia",
    "natural": "sinkhole"
  }
},
{
  "type": "node",
  "id": 6252465797,
  "lat": 45.8615763,
  "lon": 13.6260815,
  "tags": {
    "name": "Sacchetti",
    "natural": "sinkhole"
  }
},
{
  "type": "node",
  "id": 6252467963,
  "lat": 45.8622615,
  "lon": 13.6249222,
  "tags": {
    "ele": "272",
    "name": "Baracchini",
    "natural": "sinkhole"
  }
},
{
  "type": "node",
  "id": 6252511316,
  "lat": 45.8659662,
  "lon": 13.6195266,
  "tags": {
    "name": "Muretto W.",
    "natural": "sinkhole"
  }
},
{
  "type": "node",
  "id": 6252513243,
  "lat": 45.8673335,
  "lon": 13.6199406,
  "tags": {
    "name": "Udine",
    "natural": "sinkhole"
  }
},
{
  "type": "node",
  "id": 6252530490,
  "lat": 45.8666879,
  "lon": 13.6208655,
  "tags": {
    "name": "Muretto N.",
    "natural": "sinkhole"
  }
},
{
  "type": "node",
  "id": 6252531117,
  "lat": 45.8668058,
  "lon": 13.6248210,
  "tags": {
    "name": "Carrara",
    "natural": "sinkhole"
  }
},
{
  "type": "node",
  "id": 6252532189,
  "lat": 45.8660499,
  "lon": 13.6239950,
  "tags": {
    "name": "Muretto E.",
    "natural": "sinkhole"
  }
},
{
  "type": "node",
  "id": 6252540493,
  "lat": 45.8671384,
  "lon": 13.6253952,
  "tags": {
    "name": "Bombarde",
    "natural": "sinkhole"
  }
},
{
  "type": "node",
  "id": 6252548189,
  "lat": 45.8681473,
  "lon": 13.6236464,
  "tags": {
    "name": "Siracusa",
    "natural": "sinkhole"
  }
},
{
  "type": "node",
  "id": 6252553199,
  "lat": 45.8679942,
  "lon": 13.6249687,
  "tags": {
    "name": "6 Bus",
    "natural": "sinkhole"
  }
},
{
  "type": "node",
  "id": 6252559245,
  "lat": 45.8690175,
  "lon": 13.6248782,
  "tags": {
    "name": "Bombarde",
    "natural": "sinkhole"
  }
},
{
  "type": "node",
  "id": 6252560118,
  "lat": 45.8688125,
  "lon": 13.6259673,
  "tags": {
    "name": "Innominata",
    "natural": "sinkhole"
  }
},
{
  "type": "node",
  "id": 6252570033,
  "lat": 45.8694194,
  "lon": 13.6202850,
  "tags": {
    "name": "Camminamento",
    "natural": "sinkhole"
  }
},
{
  "type": "node",
  "id": 6257407707,
  "lat": 48.3014600,
  "lon": 6.2138399,
  "tags": {
    "natural": "sinkhole",
    "sinkhole": "ponor"
  }
},
{
  "type": "node",
  "id": 6273113114,
  "lat": 45.8310787,
  "lon": 13.6080860,
  "tags": {
    "name": "Penkala",
    "natural": "sinkhole"
  }
},
{
  "type": "node",
  "id": 6273116286,
  "lat": 45.8303305,
  "lon": 13.6073010,
  "tags": {
    "name": "Kalzen",
    "natural": "sinkhole"
  }
},
{
  "type": "node",
  "id": 6273134977,
  "lat": 45.8299874,
  "lon": 13.6087024,
  "tags": {
    "name": "Moritz",
    "natural": "sinkhole"
  }
},
{
  "type": "node",
  "id": 6273147698,
  "lat": 45.8295112,
  "lon": 13.6077131,
  "tags": {
    "name": "Sultan",
    "natural": "sinkhole"
  }
},
{
  "type": "node",
  "id": 6273163814,
  "lat": 45.8297828,
  "lon": 13.6071997,
  "tags": {
    "name": "Bären",
    "natural": "sinkhole"
  }
},
{
  "type": "node",
  "id": 6273167140,
  "lat": 45.8302482,
  "lon": 13.6101900,
  "tags": {
    "name": "Sickel",
    "natural": "sinkhole"
  }
},
{
  "type": "node",
  "id": 6273173301,
  "lat": 45.8297496,
  "lon": 13.6097373,
  "tags": {
    "name": "Morschall",
    "natural": "sinkhole"
  }
},
{
  "type": "node",
  "id": 6273177188,
  "lat": 45.8289929,
  "lon": 13.6093609,
  "tags": {
    "name": "Zünder",
    "natural": "sinkhole"
  }
},
{
  "type": "node",
  "id": 6279578065,
  "lat": 45.8331980,
  "lon": 13.6101155,
  "tags": {
    "name": "Hugo",
    "natural": "sinkhole"
  }
},
{
  "type": "node",
  "id": 6279634860,
  "lat": 45.8325570,
  "lon": 13.6095744,
  "tags": {
    "name": "Gass",
    "natural": "sinkhole"
  }
},
{
  "type": "node",
  "id": 6279635843,
  "lat": 45.8320280,
  "lon": 13.6093060,
  "tags": {
    "name": "Post",
    "natural": "sinkhole"
  }
},
{
  "type": "node",
  "id": 6279639930,
  "lat": 45.8315150,
  "lon": 13.6117472,
  "tags": {
    "name": "Kaviar",
    "natural": "sinkhole"
  }
},
{
  "type": "node",
  "id": 6279642510,
  "lat": 45.8316870,
  "lon": 13.6124473,
  "tags": {
    "name": "Gustav",
    "natural": "sinkhole"
  }
},
{
  "type": "node",
  "id": 6279648815,
  "lat": 45.8324445,
  "lon": 13.6120875,
  "tags": {
    "name": "Morid",
    "natural": "sinkhole"
  }
},
{
  "type": "node",
  "id": 6279673578,
  "lat": 45.8337235,
  "lon": 13.6128142,
  "tags": {
    "name": "Lapazek",
    "natural": "sinkhole"
  }
},
{
  "type": "node",
  "id": 6279678380,
  "lat": 45.8333662,
  "lon": 13.6124097,
  "tags": {
    "name": "Elektro",
    "natural": "sinkhole"
  }
},
{
  "type": "node",
  "id": 6279687605,
  "lat": 45.8329572,
  "lon": 13.6126892,
  "tags": {
    "name": "Wasser",
    "natural": "sinkhole"
  }
},
{
  "type": "node",
  "id": 6279711323,
  "lat": 45.8578854,
  "lon": 13.6631298,
  "tags": {
    "name": "Mache",
    "natural": "sinkhole"
  }
},
{
  "type": "node",
  "id": 6279725735,
  "lat": 45.8584688,
  "lon": 13.6615593,
  "tags": {
    "name": "Maschinen",
    "natural": "sinkhole"
  }
},
{
  "type": "node",
  "id": 6279738967,
  "lat": 45.8579409,
  "lon": 13.6666218,
  "tags": {
    "name": "Morser",
    "natural": "sinkhole"
  }
},
{
  "type": "node",
  "id": 6288192153,
  "lat": 48.2184949,
  "lon": 6.0324168,
  "tags": {
    "natural": "sinkhole",
    "sinkhole": "ponor"
  }
},
{
  "type": "node",
  "id": 6312389834,
  "lat": 47.8046556,
  "lon": 13.6761278,
  "tags": {
    "natural": "sinkhole"
  }
},
{
  "type": "node",
  "id": 6312389840,
  "lat": 47.8026324,
  "lon": 13.6756423,
  "tags": {
    "natural": "sinkhole"
  }
},
{
  "type": "node",
  "id": 6312389841,
  "lat": 47.8023910,
  "lon": 13.6752722,
  "tags": {
    "natural": "sinkhole"
  }
},
{
  "type": "node",
  "id": 6312389842,
  "lat": 47.8020057,
  "lon": 13.6767022,
  "tags": {
    "natural": "sinkhole"
  }
},
{
  "type": "node",
  "id": 6312389843,
  "lat": 47.8019604,
  "lon": 13.6771202,
  "tags": {
    "natural": "sinkhole"
  }
},
{
  "type": "node",
  "id": 6312389845,
  "lat": 47.8008038,
  "lon": 13.6761063,
  "tags": {
    "natural": "sinkhole"
  }
},
{
  "type": "node",
  "id": 6312389846,
  "lat": 47.8005083,
  "lon": 13.6754572,
  "tags": {
    "natural": "sinkhole"
  }
},
{
  "type": "node",
  "id": 6312389847,
  "lat": 47.8009119,
  "lon": 13.6777371,
  "tags": {
    "natural": "sinkhole"
  }
},
{
  "type": "node",
  "id": 6312389848,
  "lat": 47.8013461,
  "lon": 13.6808163,
  "tags": {
    "natural": "sinkhole"
  }
},
{
  "type": "node",
  "id": 6312389849,
  "lat": 47.8016740,
  "lon": 13.6810121,
  "tags": {
    "natural": "sinkhole"
  }
},
{
  "type": "node",
  "id": 6312389850,
  "lat": 47.8015983,
  "lon": 13.6820528,
  "tags": {
    "natural": "sinkhole"
  }
},
{
  "type": "node",
  "id": 6312389851,
  "lat": 47.8014181,
  "lon": 13.6819348,
  "tags": {
    "natural": "sinkhole"
  }
},
{
  "type": "node",
  "id": 6312389852,
  "lat": 47.8012416,
  "lon": 13.6817685,
  "tags": {
    "natural": "sinkhole"
  }
},
{
  "type": "node",
  "id": 6312389853,
  "lat": 47.8014100,
  "lon": 13.6824739,
  "tags": {
    "natural": "sinkhole"
  }
},
{
  "type": "node",
  "id": 6312389854,
  "lat": 47.8019946,
  "lon": 13.6841905,
  "tags": {
    "natural": "sinkhole"
  }
},
{
  "type": "node",
  "id": 6312980069,
  "lat": 47.8124088,
  "lon": 13.6632076,
  "tags": {
    "natural": "sinkhole"
  }
},
{
  "type": "node",
  "id": 6312982187,
  "lat": 47.8132896,
  "lon": 13.6657637,
  "tags": {
    "natural": "sinkhole"
  }
},
{
  "type": "node",
  "id": 6312982188,
  "lat": 47.8130230,
  "lon": 13.6656216,
  "tags": {
    "natural": "sinkhole"
  }
},
{
  "type": "node",
  "id": 6312982189,
  "lat": 47.8128087,
  "lon": 13.6665147,
  "tags": {
    "natural": "sinkhole"
  }
},
{
  "type": "node",
  "id": 6312982190,
  "lat": 47.8129384,
  "lon": 13.6675850,
  "tags": {
    "natural": "sinkhole"
  }
},
{
  "type": "node",
  "id": 6312982191,
  "lat": 47.8117063,
  "lon": 13.6698125,
  "tags": {
    "natural": "sinkhole"
  }
},
{
  "type": "node",
  "id": 6312982192,
  "lat": 47.8123187,
  "lon": 13.6683440,
  "tags": {
    "natural": "sinkhole"
  }
},
{
  "type": "node",
  "id": 6312982193,
  "lat": 47.8122737,
  "lon": 13.6685224,
  "tags": {
    "natural": "sinkhole"
  }
},
{
  "type": "node",
  "id": 6312982194,
  "lat": 47.8120098,
  "lon": 13.6688966,
  "tags": {
    "natural": "sinkhole"
  }
},
{
  "type": "node",
  "id": 6313061785,
  "lat": 47.8119945,
  "lon": 13.6607735,
  "tags": {
    "natural": "sinkhole"
  }
},
{
  "type": "node",
  "id": 6313061786,
  "lat": 47.8122463,
  "lon": 13.6620762,
  "tags": {
    "natural": "sinkhole"
  }
},
{
  "type": "node",
  "id": 6314648242,
  "lat": 48.2849777,
  "lon": 6.2254339,
  "tags": {
    "natural": "sinkhole",
    "sinkhole": "ponor"
  }
},
{
  "type": "node",
  "id": 6314648252,
  "lat": 48.2875085,
  "lon": 6.2199086,
  "tags": {
    "natural": "sinkhole",
    "sinkhole": "ponor"
  }
},
{
  "type": "node",
  "id": 6323402810,
  "lat": 48.4095500,
  "lon": 5.8907590,
  "tags": {
    "description": "Diaclase de décompression",
    "natural": "sinkhole",
    "ref:FR:BRGM": "LORAW0003549",
    "sinkhole": "pit"
  }
},
{
  "type": "node",
  "id": 6323402812,
  "lat": 48.3844370,
  "lon": 5.9388650,
  "tags": {
    "name": "Effondrement de la rue Mangin Chevenot",
    "natural": "sinkhole",
    "ref:FR:BRGM": "LORAW0013968",
    "sinkhole": "doline"
  }
},
{
  "type": "node",
  "id": 6335502339,
  "lat": 48.4490110,
  "lon": 5.9012040,
  "tags": {
    "name": "Puits de Saint-Amond",
    "natural": "sinkhole",
    "ref:BRGM": "LORAW0006421",
    "sinkhole": "pit"
  }
},
{
  "type": "node",
  "id": 6335502341,
  "lat": 48.4602617,
  "lon": 5.8866809,
  "tags": {
    "name": "Perte de la Fosse des Soldats",
    "natural": "sinkhole",
    "ref:BRGM": "LORAW0013433",
    "refitted": "yes",
    "sinkhole": "ponor"
  }
},
{
  "type": "node",
  "id": 6340538227,
  "lat": 47.8220879,
  "lon": 13.6420986,
  "tags": {
    "natural": "sinkhole"
  }
},
{
  "type": "node",
  "id": 6340538228,
  "lat": 47.8210154,
  "lon": 13.6406301,
  "tags": {
    "natural": "sinkhole"
  }
},
{
  "type": "node",
  "id": 6340538229,
  "lat": 47.8208524,
  "lon": 13.6356801,
  "tags": {
    "natural": "sinkhole"
  }
},
{
  "type": "node",
  "id": 6340538230,
  "lat": 47.8218718,
  "lon": 13.6354467,
  "tags": {
    "natural": "sinkhole"
  }
},
{
  "type": "node",
  "id": 6340538231,
  "lat": 47.8215818,
  "lon": 13.6363077,
  "tags": {
    "natural": "sinkhole"
  }
},
{
  "type": "node",
  "id": 6340538505,
  "lat": 47.8211685,
  "lon": 13.6396699,
  "tags": {
    "natural": "sinkhole"
  }
},
{
  "type": "node",
  "id": 6340538506,
  "lat": 47.8208605,
  "lon": 13.6389416,
  "tags": {
    "natural": "sinkhole"
  }
},
{
  "type": "node",
  "id": 6340538540,
  "lat": 47.8152925,
  "lon": 13.6466745,
  "tags": {
    "natural": "sinkhole"
  }
},
{
  "type": "node",
  "id": 6342977808,
  "lat": 45.7257292,
  "lon": 13.7492624,
  "tags": {
    "name": "Dolina Riselce",
    "natural": "sinkhole"
  }
},
{
  "type": "node",
  "id": 6387361750,
  "lat": 46.2691352,
  "lon": 8.3070535,
  "tags": {
    "name": "Marmitta Baulina",
    "natural": "sinkhole",
    "tourism": "attraction"
  }
},
{
  "type": "node",
  "id": 6389123554,
  "lat": 47.8137363,
  "lon": 13.5731068,
  "tags": {
    "natural": "sinkhole"
  }
},
{
  "type": "node",
  "id": 6389123555,
  "lat": 47.8137633,
  "lon": 13.5734609,
  "tags": {
    "natural": "sinkhole"
  }
},
{
  "type": "node",
  "id": 6389123556,
  "lat": 47.8135508,
  "lon": 13.5737184,
  "tags": {
    "natural": "sinkhole"
  }
},
{
  "type": "node",
  "id": 6389123557,
  "lat": 47.8134445,
  "lon": 13.5735333,
  "tags": {
    "natural": "sinkhole"
  }
},
{
  "type": "node",
  "id": 6389123558,
  "lat": 47.8135472,
  "lon": 13.5730290,
  "tags": {
    "natural": "sinkhole"
  }
},
{
  "type": "node",
  "id": 6389123559,
  "lat": 47.8133418,
  "lon": 13.5727259,
  "tags": {
    "natural": "sinkhole"
  }
},
{
  "type": "node",
  "id": 6392298423,
  "lat": 46.4264805,
  "lon": 5.5359319,
  "tags": {
    "natural": "sinkhole",
    "sinkhole": "estavelle"
  }
},
{
  "type": "node",
  "id": 6442467654,
  "lat": 48.4375399,
  "lon": 6.9725472,
  "tags": {
    "natural": "sinkhole",
    "sinkhole": "pit"
  }
},
{
  "type": "node",
  "id": 6442467655,
  "lat": 48.4375238,
  "lon": 6.9717613,
  "tags": {
    "natural": "sinkhole",
    "sinkhole": "pit"
  }
},
{
  "type": "node",
  "id": 6443930767,
  "lat": 47.7048661,
  "lon": 12.1091520,
  "tags": {
    "description": "Kleiner Ponor",
    "natural": "sinkhole"
  }
},
{
  "type": "node",
  "id": 6524876997,
  "lat": 48.3235042,
  "lon": 6.1874480,
  "tags": {
    "natural": "sinkhole",
    "sinkhole": "ponor"
  }
},
{
  "type": "node",
  "id": 6524877001,
  "lat": 48.3237184,
  "lon": 6.1882284,
  "tags": {
    "natural": "sinkhole",
    "sinkhole": "pit"
  }
},
{
  "type": "node",
  "id": 6524877002,
  "lat": 48.3237349,
  "lon": 6.1882471,
  "tags": {
    "natural": "sinkhole",
    "sinkhole": "pit"
  }
},
{
  "type": "node",
  "id": 6524877003,
  "lat": 48.3237844,
  "lon": 6.1882552,
  "tags": {
    "natural": "sinkhole",
    "sinkhole": "doline"
  }
},
{
  "type": "node",
  "id": 6524877004,
  "lat": 48.3239226,
  "lon": 6.1881036,
  "tags": {
    "natural": "sinkhole",
    "sinkhole": "doline"
  }
},
{
  "type": "node",
  "id": 6542723627,
  "lat": 48.2198410,
  "lon": 6.1362590,
  "tags": {
    "natural": "sinkhole",
    "ref:FR:BRGM": "LORAW0040264",
    "sinkhole": "doline"
  }
},
{
  "type": "node",
  "id": 6542723628,
  "lat": 48.2196320,
  "lon": 6.1357720,
  "tags": {
    "natural": "sinkhole",
    "ref:FR:BRGM": "LORAW0040263",
    "sinkhole": "ponor"
  }
},
{
  "type": "node",
  "id": 6546870134,
  "lat": 48.2201784,
  "lon": 6.1546719,
  "tags": {
    "natural": "sinkhole",
    "sinkhole": "doline"
  }
},
{
  "type": "node",
  "id": 6546870138,
  "lat": 48.2234736,
  "lon": 6.1707383,
  "tags": {
    "natural": "sinkhole",
    "ref:FR:BRGM": "LORAW0040506",
    "sinkhole": "ponor"
  }
},
{
  "type": "node",
  "id": 6547888456,
  "lat": 48.2207430,
  "lon": 6.1376040,
  "tags": {
    "natural": "sinkhole",
    "ref:FR:BRGM": "LORAW0040503",
    "sinkhole": "ponor"
  }
},
{
  "type": "node",
  "id": 6547888457,
  "lat": 48.2224348,
  "lon": 6.1505658,
  "tags": {
    "natural": "sinkhole",
    "ref:FR:BRGM": "LORAW0040499",
    "sinkhole": "doline"
  }
},
{
  "type": "node",
  "id": 6547888458,
  "lat": 48.2191620,
  "lon": 6.1427830,
  "tags": {
    "name": "Trou Banal",
    "natural": "sinkhole",
    "ref:FR:BRGM": "LORAW0018204"
  }
},
{
  "type": "node",
  "id": 6547888459,
  "lat": 48.2199130,
  "lon": 6.1451550,
  "tags": {
    "natural": "sinkhole",
    "ref:FR:BRGM": "LORAW0040502",
    "sinkhole": "ponor"
  }
},
{
  "type": "node",
  "id": 6547888460,
  "lat": 48.2246910,
  "lon": 6.1477240,
  "tags": {
    "natural": "sinkhole",
    "ref:FR:BRGM": "LORAW0040500",
    "sinkhole": "ponor"
  }
},
{
  "type": "node",
  "id": 6547888461,
  "lat": 48.2248430,
  "lon": 6.1471960,
  "tags": {
    "natural": "sinkhole",
    "ref:FR:BRGM": "LORAW0040501",
    "sinkhole": "doline"
  }
},
{
  "type": "node",
  "id": 6547888462,
  "lat": 48.2304540,
  "lon": 6.1459200,
  "tags": {
    "natural": "sinkhole",
    "ref:FR:BRGM": "LORAW0040504",
    "sinkhole": "ponor"
  }
},
{
  "type": "node",
  "id": 6547888463,
  "lat": 48.2306570,
  "lon": 6.1455980,
  "tags": {
    "natural": "sinkhole",
    "ref:FR:BRGM": "LORAW0040505",
    "sinkhole": "doline"
  }
},
{
  "type": "node",
  "id": 6552537325,
  "lat": 48.3222568,
  "lon": 9.4009946,
  "tags": {
    "natural": "sinkhole"
  }
},
{
  "type": "node",
  "id": 6554654634,
  "lat": 48.2311390,
  "lon": 6.2270830,
  "tags": {
    "natural": "sinkhole",
    "ref:FR:BRGM": "LORAW0040453",
    "sinkhole": "ponor"
  }
},
{
  "type": "node",
  "id": 6554654635,
  "lat": 48.2325976,
  "lon": 6.2347048,
  "tags": {
    "natural": "sinkhole",
    "ref:FR:BRGM": "LORAW0040565",
    "sinkhole": "ponor"
  }
},
{
  "type": "node",
  "id": 6554654636,
  "lat": 48.2322674,
  "lon": 6.2343283,
  "tags": {
    "natural": "sinkhole",
    "ref:FR:BRGM": "LORAW0040564",
    "sinkhole": "doline"
  }
},
{
  "type": "node",
  "id": 6554654637,
  "lat": 48.2327760,
  "lon": 6.2347500,
  "tags": {
    "natural": "sinkhole",
    "ref:FR:BRGM": "LORAW0040566",
    "sinkhole": "doline"
  }
},
{
  "type": "node",
  "id": 6564812893,
  "lat": 49.2473518,
  "lon": 7.0184186,
  "tags": {
    "natural": "sinkhole"
  }
},
{
  "type": "node",
  "id": 6564812901,
  "lat": 49.2472630,
  "lon": 7.0182676,
  "tags": {
    "natural": "sinkhole"
  }
},
{
  "type": "node",
  "id": 6564812903,
  "lat": 49.2484192,
  "lon": 7.0186568,
  "tags": {
    "natural": "sinkhole"
  }
},
{
  "type": "node",
  "id": 6564812905,
  "lat": 49.2474056,
  "lon": 7.0179467,
  "tags": {
    "natural": "sinkhole"
  }
},
{
  "type": "node",
  "id": 6572730775,
  "lat": 48.1989320,
  "lon": 6.2114330,
  "tags": {
    "natural": "sinkhole",
    "ref:FR:BRGM": "LORAW0040255",
    "sinkhole": "doline"
  }
},
{
  "type": "node",
  "id": 6572730776,
  "lat": 48.1990370,
  "lon": 6.2109690,
  "tags": {
    "natural": "sinkhole",
    "ref:FR:BRGM": "LORAW0040256",
    "sinkhole": "doline"
  }
},
{
  "type": "node",
  "id": 6589829483,
  "lat": 46.9626766,
  "lon": 8.9238060,
  "tags": {
    "natural": "sinkhole",
    "sinkhole": "estavelle"
  }
},
{
  "type": "node",
  "id": 6591406644,
  "lat": 48.3467746,
  "lon": 5.6536310,
  "tags": {
    "name": "Gouffre des Ensanges",
    "natural": "sinkhole",
    "ref:FR:BRGM": "LORAW0018166",
    "sinkhole": "pit"
  }
},
{
  "type": "node",
  "id": 6699329713,
  "lat": 46.9351330,
  "lon": 8.9583671,
  "tags": {
    "fixme": "is this a sinkhole? It seemed the water just vanished somewhere. could not see from the path and did not go and find out",
    "natural": "sinkhole"
  }
},
{
  "type": "node",
  "id": 6797155516,
  "lat": 47.6453582,
  "lon": 12.0862859,
  "tags": {
    "natural": "sinkhole"
  }
},
{
  "type": "node",
  "id": 6797155517,
  "lat": 47.6454630,
  "lon": 12.0851755,
  "tags": {
    "natural": "sinkhole"
  }
},
{
  "type": "node",
  "id": 6879566816,
  "lat": 46.3994665,
  "lon": 14.9152681,
  "tags": {
    "natural": "sinkhole",
    "sinkhole": "ponor"
  }
},
{
  "type": "node",
  "id": 6879566893,
  "lat": 46.4020930,
  "lon": 14.9167407,
  "tags": {
    "natural": "sinkhole",
    "sinkhole": "ponor"
  }
},
{
  "type": "node",
  "id": 6896101888,
  "lat": 47.8016145,
  "lon": 13.6574623,
  "tags": {
    "natural": "sinkhole"
  }
},
{
  "type": "node",
  "id": 6896102068,
  "lat": 47.8069056,
  "lon": 13.6653467,
  "tags": {
    "natural": "sinkhole"
  }
},
{
  "type": "node",
  "id": 6896102069,
  "lat": 47.8068894,
  "lon": 13.6651844,
  "tags": {
    "natural": "sinkhole"
  }
},
{
  "type": "node",
  "id": 6899860208,
  "lat": 45.7787050,
  "lon": 6.0916743,
  "tags": {
    "name": "Doline",
    "natural": "sinkhole",
    "sinkhole": "doline"
  }
},
{
  "type": "node",
  "id": 6918693286,
  "lat": 47.7200520,
  "lon": 11.9835737,
  "tags": {
    "natural": "sinkhole"
  }
},
{
  "type": "node",
  "id": 6935621777,
  "lat": 47.8125025,
  "lon": 13.6535677,
  "tags": {
    "ele": "1500",
    "natural": "sinkhole"
  }
},
{
  "type": "node",
  "id": 6938902403,
  "lat": 49.8007812,
  "lon": 11.5724854,
  "tags": {
    "natural": "sinkhole"
  }
},
{
  "type": "node",
  "id": 6949917919,
  "lat": 45.8357908,
  "lon": 13.6279016,
  "tags": {
    "name": "Säge -D",
    "natural": "sinkhole"
  }
},
{
  "type": "node",
  "id": 6949941852,
  "lat": 45.8345138,
  "lon": 13.6314998,
  "tags": {
    "ele": "235",
    "natural": "sinkhole"
  }
},
{
  "type": "node",
  "id": 6949945910,
  "lat": 45.8353431,
  "lon": 13.6290655,
  "tags": {
    "name": "Hobel -D",
    "natural": "sinkhole"
  }
},
{
  "type": "node",
  "id": 6949949015,
  "lat": 45.8342358,
  "lon": 13.6307507,
  "tags": {
    "name": "Band-D",
    "natural": "sinkhole",
    "sinkhole": "doline"
  }
},
{
  "type": "node",
  "id": 6949952187,
  "lat": 45.8338257,
  "lon": 13.6311508,
  "tags": {
    "name": "Zwirn",
    "natural": "sinkhole"
  }
},
{
  "type": "node",
  "id": 6949963455,
  "lat": 45.8324718,
  "lon": 13.6240499,
  "tags": {
    "name": "Hafen - D",
    "natural": "sinkhole"
  }
},
{
  "type": "node",
  "id": 6949965013,
  "lat": 45.8349850,
  "lon": 13.6263235,
  "tags": {
    "name": "Schiff -D",
    "natural": "sinkhole"
  }
},
{
  "type": "node",
  "id": 6957587695,
  "lat": 47.5541098,
  "lon": 8.0671297,
  "tags": {
    "name": "Erdmannliloch",
    "natural": "sinkhole",
    "sinkhole": "doline"
  }
},
{
  "type": "node",
  "id": 6969672541,
  "lat": 48.3396494,
  "lon": 6.2041828,
  "tags": {
    "natural": "sinkhole",
    "sinkhole": "doline"
  }
},
{
  "type": "node",
  "id": 7001574058,
  "lat": 48.3450690,
  "lon": 5.4223460,
  "tags": {
    "depth": "10",
    "natural": "sinkhole",
    "ref:FR:BRGM": "LORAW0041587",
    "sinkhole": "ponor",
    "source": "BRGM 2019"
  }
},
{
  "type": "node",
  "id": 7001574059,
  "lat": 48.3453940,
  "lon": 5.4218790,
  "tags": {
    "depth": "3.3",
    "name": "Fontaine Oubliée",
    "natural": "sinkhole",
    "note": "Fait partie d’une fontaine karstique ; à modéliser — part of a karst fenster; to be added",
    "ref:FR:BRGM": "LORAW0013505",
    "sinkhole": "ponor",
    "source": "BRGM 2019"
  }
},
{
  "type": "node",
  "id": 7001574060,
  "lat": 48.3452890,
  "lon": 5.4207160,
  "tags": {
    "depth": "6.5",
    "natural": "sinkhole",
    "ref:FR:BRGM": "LORAW0041583;LORAW0013504",
    "sinkhole": "pit",
    "source": "BRGM 2019"
  }
},
{
  "type": "node",
  "id": 7001574061,
  "lat": 48.3452190,
  "lon": 5.4205650,
  "tags": {
    "depth": "2.5",
    "natural": "sinkhole",
    "ref:FR:BRGM": "LORAW0041582",
    "sinkhole": "pit",
    "source": "BRGM 2019"
  }
},
{
  "type": "node",
  "id": 7001574062,
  "lat": 48.3451490,
  "lon": 5.4200450,
  "tags": {
    "depth": "2",
    "natural": "sinkhole",
    "ref:FR:BRGM": "LORAW0041581",
    "sinkhole": "doline",
    "source": "BRGM 2019"
  }
},
{
  "type": "node",
  "id": 7001574063,
  "lat": 48.3449990,
  "lon": 5.4185450,
  "tags": {
    "depth": "5",
    "natural": "sinkhole",
    "ref:FR:BRGM": "LORAW0041487",
    "sinkhole": "doline",
    "source": "BRGM 2019"
  }
},
{
  "type": "node",
  "id": 7001574064,
  "lat": 48.3457370,
  "lon": 5.4200910,
  "tags": {
    "natural": "sinkhole",
    "ref:FR:BRGM": "LORAW0013551",
    "sinkhole": "pit",
    "source": "BRGM 2019"
  }
},
{
  "type": "node",
  "id": 7001574065,
  "lat": 48.3467750,
  "lon": 5.4323400,
  "tags": {
    "name": "Trou Robert",
    "natural": "sinkhole",
    "ref:FR:BRGM": "LORAW0018155",
    "source": "BRGM 2019"
  }
},
{
  "type": "node",
  "id": 7001574066,
  "lat": 48.3456450,
  "lon": 5.4335830,
  "tags": {
    "alt_name": "Trou de la Bique;Cavité n°5;Fontaine n°4",
    "name": "Fontaine de la Bique",
    "natural": "sinkhole",
    "ref:FR:BRGM": "LORAW0018156",
    "sinkhole": "ponor",
    "source": "BRGM 2019"
  }
},
{
  "type": "node",
  "id": 7001574067,
  "lat": 48.3406760,
  "lon": 5.4329790,
  "tags": {
    "natural": "sinkhole",
    "ref:FR:BRGM": "LORAW0013519",
    "sinkhole": "pit",
    "source": "BRGM 2019"
  }
},
{
  "type": "node",
  "id": 7001574068,
  "lat": 48.3405890,
  "lon": 5.4330450,
  "tags": {
    "depth": "8",
    "natural": "sinkhole",
    "ref:FR:BRGM": "LORAW0041524",
    "sinkhole": "pit",
    "source": "BRGM 2019"
  }
},
{
  "type": "node",
  "id": 7001574070,
  "lat": 48.3423490,
  "lon": 5.4298950,
  "tags": {
    "depth": "5",
    "natural": "sinkhole",
    "ref:FR:BRGM": "LORAW0041506",
    "sinkhole": "doline",
    "source": "BRGM 2019"
  }
},
{
  "type": "node",
  "id": 7001574071,
  "lat": 48.3422890,
  "lon": 5.4292450,
  "tags": {
    "depth": "14",
    "natural": "sinkhole",
    "ref:FR:BRGM": "LORAW0041505",
    "sinkhole": "doline",
    "source": "BRGM 2019"
  }
},
{
  "type": "node",
  "id": 7001574072,
  "lat": 48.3417190,
  "lon": 5.4298160,
  "tags": {
    "depth": "15",
    "natural": "sinkhole",
    "ref:FR:BRGM": "LORAW0041504",
    "sinkhole": "doline",
    "source": "BRGM 2019"
  }
},
{
  "type": "node",
  "id": 7001574073,
  "lat": 48.3417690,
  "lon": 5.4288750,
  "tags": {
    "depth": "3",
    "natural": "sinkhole",
    "ref:FR:BRGM": "LORAW0041501",
    "sinkhole": "doline",
    "source": "BRGM 2019"
  }
},
{
  "type": "node",
  "id": 7001574074,
  "lat": 48.3416690,
  "lon": 5.4286250,
  "tags": {
    "depth": "20",
    "natural": "sinkhole",
    "ref:FR:BRGM": "LORAW0041502",
    "sinkhole": "doline",
    "source": "BRGM 2019"
  }
},
{
  "type": "node",
  "id": 7001574075,
  "lat": 48.3415490,
  "lon": 5.4286950,
  "tags": {
    "depth": "3",
    "natural": "sinkhole",
    "ref:FR:BRGM": "LORAW0041503",
    "sinkhole": "doline",
    "source": "BRGM 2019"
  }
},
{
  "type": "node",
  "id": 7001574076,
  "lat": 48.3417990,
  "lon": 5.4283450,
  "tags": {
    "depth": "3",
    "natural": "sinkhole",
    "ref:FR:BRGM": "LORAW0041500",
    "sinkhole": "doline",
    "source": "BRGM 2019"
  }
},
{
  "type": "node",
  "id": 7001574078,
  "lat": 48.3423490,
  "lon": 5.4272250,
  "tags": {
    "depth": "13",
    "natural": "sinkhole",
    "ref:FR:BRGM": "LORAW0041499",
    "sinkhole": "doline",
    "source": "BRGM 2019"
  }
},
{
  "type": "node",
  "id": 7001574079,
  "lat": 48.3422890,
  "lon": 5.4269150,
  "tags": {
    "depth": "3",
    "natural": "sinkhole",
    "ref:FR:BRGM": "LORAW0041498",
    "sinkhole": "doline",
    "source": "BRGM 2019"
  }
},
{
  "type": "node",
  "id": 7001574080,
  "lat": 48.3423490,
  "lon": 5.4261750,
  "tags": {
    "depth": "3",
    "natural": "sinkhole",
    "ref:FR:BRGM": "LORAW0041496",
    "sinkhole": "doline",
    "source": "BRGM 2019"
  }
},
{
  "type": "node",
  "id": 7001574081,
  "lat": 48.3423490,
  "lon": 5.4260250,
  "tags": {
    "depth": "5",
    "natural": "sinkhole",
    "ref:FR:BRGM": "LORAW0041494",
    "sinkhole": "doline",
    "source": "BRGM 2019"
  }
},
{
  "type": "node",
  "id": 7001574082,
  "lat": 48.3423990,
  "lon": 5.4259460,
  "tags": {
    "depth": "7",
    "natural": "sinkhole",
    "ref:FR:BRGM": "LORAW0041495",
    "sinkhole": "doline",
    "source": "BRGM 2019"
  }
},
{
  "type": "node",
  "id": 7001574083,
  "lat": 48.3423200,
  "lon": 5.4258550,
  "tags": {
    "natural": "sinkhole",
    "ref:FR:BRGM": "LORAW0013524",
    "sinkhole": "pit",
    "source": "BRGM 2019"
  }
},
{
  "type": "node",
  "id": 7001574084,
  "lat": 48.3423490,
  "lon": 5.4264910,
  "tags": {
    "natural": "sinkhole",
    "ref:FR:BRGM": "LORAW0013523",
    "sinkhole": "pit",
    "source": "BRGM 2019"
  }
},
{
  "type": "node",
  "id": 7001619285,
  "lat": 48.3422490,
  "lon": 5.4264460,
  "tags": {
    "depth": "3",
    "natural": "sinkhole",
    "ref:FR:BRGM": "LORAW0041497",
    "sinkhole": "doline",
    "source": "BRGM 2019"
  }
},
{
  "type": "node",
  "id": 7001619286,
  "lat": 48.3420190,
  "lon": 5.4262960,
  "tags": {
    "depth": "22",
    "natural": "sinkhole",
    "ref:FR:BRGM": "LORAW0041493",
    "sinkhole": "doline",
    "source": "BRGM 2019"
  }
},
{
  "type": "node",
  "id": 7001619287,
  "lat": 48.3417690,
  "lon": 5.4259160,
  "tags": {
    "depth": "20",
    "natural": "sinkhole",
    "ref:FR:BRGM": "LORAW0041492",
    "sinkhole": "doline",
    "source": "BRGM 2019"
  }
},
{
  "type": "node",
  "id": 7001619288,
  "lat": 48.3417890,
  "lon": 5.4254250,
  "tags": {
    "depth": "4",
    "natural": "sinkhole",
    "ref:FR:BRGM": "LORAW0041490",
    "sinkhole": "doline",
    "source": "BRGM 2019"
  }
},
{
  "type": "node",
  "id": 7001619289,
  "lat": 48.3431690,
  "lon": 5.4245260,
  "tags": {
    "depth": "3",
    "natural": "sinkhole",
    "ref:FR:BRGM": "LORAW0041489",
    "sinkhole": "doline",
    "source": "BRGM 2019"
  }
},
{
  "type": "node",
  "id": 7001619290,
  "lat": 48.3429490,
  "lon": 5.4242450,
  "tags": {
    "depth": "3",
    "natural": "sinkhole",
    "ref:FR:BRGM": "LORAW0041488",
    "sinkhole": "doline",
    "source": "BRGM 2019"
  }
},
{
  "type": "node",
  "id": 7001619291,
  "lat": 48.3424690,
  "lon": 5.4236650,
  "tags": {
    "natural": "sinkhole",
    "ref:FR:BRGM": "LORAW0041478",
    "sinkhole": "pit",
    "source": "BRGM 2019"
  }
},
{
  "type": "node",
  "id": 7001619292,
  "lat": 48.3424750,
  "lon": 5.4237450,
  "tags": {
    "natural": "sinkhole",
    "ref:FR:BRGM": "LORAW0013525",
    "sinkhole": "pit",
    "source": "BRGM 2019"
  }
},
{
  "type": "node",
  "id": 7001619293,
  "lat": 48.3419890,
  "lon": 5.4252660,
  "tags": {
    "depth": "4",
    "natural": "sinkhole",
    "ref:FR:BRGM": "LORAW0041491",
    "sinkhole": "doline",
    "source": "BRGM 2019"
  }
},
{
  "type": "node",
  "id": 7001619294,
  "lat": 48.3418690,
  "lon": 5.4234150,
  "tags": {
    "depth": "5",
    "natural": "sinkhole",
    "ref:FR:BRGM": "LORAW0041479",
    "sinkhole": "doline",
    "source": "BRGM 2019"
  }
},
{
  "type": "node",
  "id": 7001619295,
  "lat": 48.3428990,
  "lon": 5.4215460,
  "tags": {
    "depth": "4",
    "natural": "sinkhole",
    "ref:FR:BRGM": "LORAW0041481",
    "sinkhole": "doline",
    "source": "BRGM 2019"
  }
},
{
  "type": "node",
  "id": 7001619296,
  "lat": 48.3430690,
  "lon": 5.4211450,
  "tags": {
    "depth": "5",
    "natural": "sinkhole",
    "ref:FR:BRGM": "LORAW0041480",
    "sinkhole": "doline",
    "source": "BRGM 2019"
  }
},
{
  "type": "node",
  "id": 7001619297,
  "lat": 48.3415390,
  "lon": 5.4220960,
  "tags": {
    "depth": "10",
    "natural": "sinkhole",
    "ref:FR:BRGM": "LORAW0041477",
    "sinkhole": "doline",
    "source": "BRGM 2019"
  }
},
{
  "type": "node",
  "id": 7001619298,
  "lat": 48.3408390,
  "lon": 5.4226150,
  "tags": {
    "depth": "10",
    "natural": "sinkhole",
    "ref:FR:BRGM": "LORAW0041476",
    "sinkhole": "doline",
    "source": "BRGM 2019"
  }
},
{
  "type": "node",
  "id": 7001619299,
  "lat": 48.3406890,
  "lon": 5.4219760,
  "tags": {
    "depth": "2",
    "natural": "sinkhole",
    "ref:FR:BRGM": "LORAW0041474",
    "sinkhole": "doline",
    "source": "BRGM 2019"
  }
},
{
  "type": "node",
  "id": 7001619300,
  "lat": 48.3403490,
  "lon": 5.4211460,
  "tags": {
    "natural": "sinkhole",
    "ref:FR:BRGM": "LORAW0041475",
    "sinkhole": "doline",
    "source": "BRGM 2019"
  }
},
{
  "type": "node",
  "id": 7001619301,
  "lat": 48.3427850,
  "lon": 5.4184190,
  "tags": {
    "alt_name": "Gouffre P17",
    "fixme": "Fait partie d’une fontaine karstique ; à modéliser — part of a karst fenster; to be added",
    "name": "Gouffre de la Grande Fontaine (P17)",
    "natural": "sinkhole",
    "ref:FR:BRGM": "LORAW0018152",
    "sinkhole": "pit",
    "source": "BRGM 2019"
  }
},
{
  "type": "node",
  "id": 7001619302,
  "lat": 48.3435890,
  "lon": 5.4181150,
  "tags": {
    "depth": "2.1",
    "natural": "sinkhole",
    "ref:FR:BRGM": "LORAW0041484;LORAW0041483",
    "sinkhole": "pit",
    "source": "BRGM 2019"
  }
},
{
  "type": "node",
  "id": 7001619303,
  "lat": 48.3436890,
  "lon": 5.4180250,
  "tags": {
    "depth": "12",
    "natural": "sinkhole",
    "ref:FR:BRGM": "LORAW0041485",
    "sinkhole": "pit",
    "source": "BRGM 2019"
  }
},
{
  "type": "node",
  "id": 7001619304,
  "lat": 48.3436500,
  "lon": 5.4176870,
  "tags": {
    "natural": "sinkhole",
    "ref:FR:BRGM": "LORAW0013527",
    "sinkhole": "pit",
    "source": "BRGM 2019"
  }
},
{
  "type": "node",
  "id": 7001619305,
  "lat": 48.3439490,
  "lon": 5.4181250,
  "tags": {
    "depth": "8",
    "natural": "sinkhole",
    "ref:FR:BRGM": "LORAW0041486",
    "sinkhole": "pit",
    "source": "BRGM 2019"
  }
},
{
  "type": "node",
  "id": 7001619306,
  "lat": 48.3439390,
  "lon": 5.4179870,
  "tags": {
    "name": "Trous X",
    "natural": "sinkhole",
    "ref:FR:BRGM": "LORAW0013103",
    "source": "BRGM 2019"
  }
},
{
  "type": "node",
  "id": 7001619307,
  "lat": 48.3438000,
  "lon": 5.4181410,
  "tags": {
    "alt_name": "Trous Jumeaux;Trou Erodé;Trou Éminé",
    "depth": "5",
    "name": "Gouffres des Jumeaux",
    "natural": "sinkhole",
    "ref:FR:BRGM": "LORAW0013526",
    "sinkhole": "pit",
    "source": "BRGM 2019"
  }
},
{
  "type": "node",
  "id": 7001619308,
  "lat": 48.3441180,
  "lon": 5.4180250,
  "tags": {
    "alt_name": "Trou du Veau",
    "depth": "35",
    "name": "Gouffre du Veau",
    "natural": "sinkhole",
    "ref:FR:BRGM": "LORAW0013102",
    "sinkhole": "pit",
    "source": "BRGM 2019"
  }
},
{
  "type": "node",
  "id": 7001619311,
  "lat": 48.3434390,
  "lon": 5.4202950,
  "tags": {
    "name": "Bois de Trampot, doline emergence perte (701)",
    "natural": "sinkhole",
    "ref:FR:BRGM": "LORAW0041482",
    "sinkhole": "ponor",
    "source": "BRGM 2019"
  }
},
{
  "type": "node",
  "id": 7001619312,
  "lat": 48.3452490,
  "lon": 5.4309150,
  "tags": {
    "depth": "12.5",
    "natural": "sinkhole",
    "ref:FR:BRGM": "LORAW0041569",
    "sinkhole": "ponor",
    "source": "BRGM 2019"
  }
},
{
  "type": "node",
  "id": 7001619313,
  "lat": 48.3457390,
  "lon": 5.4310160,
  "tags": {
    "depth": "20",
    "natural": "sinkhole",
    "ref:FR:BRGM": "LORAW0041570",
    "sinkhole": "doline",
    "source": "BRGM 2019"
  }
},
{
  "type": "node",
  "id": 7001619314,
  "lat": 48.3459260,
  "lon": 5.4310750,
  "tags": {
    "name": "Fontaine de la Bique",
    "natural": "sinkhole",
    "note": "Fait partie d’une fontaine karstique ; à modéliser — part of a karst fenster; to be added",
    "ref:FR:BRGM": "LORAW0018154",
    "sinkhole": "ponor",
    "source": "BRGM 2019"
  }
},
{
  "type": "node",
  "id": 7001619315,
  "lat": 48.3459390,
  "lon": 5.4301460,
  "tags": {
    "depth": "30",
    "natural": "sinkhole",
    "ref:FR:BRGM": "LORAW0041571",
    "sinkhole": "doline",
    "source": "BRGM 2019"
  }
},
{
  "type": "node",
  "id": 7001619316,
  "lat": 48.3465890,
  "lon": 5.4292450,
  "tags": {
    "depth": "6",
    "natural": "sinkhole",
    "ref:FR:BRGM": "LORAW0041572",
    "sinkhole": "doline",
    "source": "BRGM 2019"
  }
},
{
  "type": "node",
  "id": 7001619317,
  "lat": 48.3448710,
  "lon": 5.4397190,
  "tags": {
    "alt_name": "Gouffre P33",
    "depth": "33",
    "name": "Gouffre de la Pelle",
    "natural": "sinkhole",
    "ref:FR:BRGM": "LORAW0013511",
    "sinkhole": "pit",
    "source": "BRGM 2019"
  }
},
{
  "type": "node",
  "id": 7001619318,
  "lat": 48.3414690,
  "lon": 5.4297160,
  "tags": {
    "natural": "sinkhole",
    "ref:FR:BRGM": "LORAW0041509",
    "sinkhole": "doline",
    "source": "BRGM 2019"
  }
},
{
  "type": "node",
  "id": 7001619319,
  "lat": 48.3412190,
  "lon": 5.4297160,
  "tags": {
    "natural": "sinkhole",
    "ref:FR:BRGM": "LORAW0041510",
    "sinkhole": "doline",
    "source": "BRGM 2019"
  }
},
{
  "type": "node",
  "id": 7001619320,
  "lat": 48.3407430,
  "lon": 5.4297160,
  "tags": {
    "natural": "sinkhole",
    "ref:FR:BRGM": "LORAW0013522",
    "sinkhole": "pit",
    "source": "BRGM 2019"
  }
},
{
  "type": "node",
  "id": 7001619321,
  "lat": 48.3368990,
  "lon": 5.4318160,
  "tags": {
    "anthropogenic": "yes",
    "description": "Carrière remblayée",
    "natural": "sinkhole",
    "ref:FR:BRGM": "LORAW0041601",
    "sinkhole": "doline",
    "source": "BRGM 2019"
  }
},
{
  "type": "node",
  "id": 7001619322,
  "lat": 48.3360490,
  "lon": 5.4320450,
  "tags": {
    "anthropogenic": "yes",
    "description": "Carrière remblayée",
    "natural": "sinkhole",
    "ref:FR:BRGM": "LORAW0041602",
    "sinkhole": "doline",
    "source": "BRGM 2019"
  }
},
{
  "type": "node",
  "id": 7001619323,
  "lat": 48.3402390,
  "lon": 5.4323450,
  "tags": {
    "natural": "sinkhole",
    "ref:FR:BRGM": "LORAW0041523",
    "sinkhole": "doline",
    "source": "BRGM 2019"
  }
},
{
  "type": "node",
  "id": 7001619324,
  "lat": 48.3399690,
  "lon": 5.4322960,
  "tags": {
    "natural": "sinkhole",
    "ref:FR:BRGM": "LORAW0041522",
    "sinkhole": "doline",
    "source": "BRGM 2019"
  }
},
{
  "type": "node",
  "id": 7001619325,
  "lat": 48.3398490,
  "lon": 5.4323160,
  "tags": {
    "natural": "sinkhole",
    "ref:FR:BRGM": "LORAW0041521",
    "sinkhole": "doline",
    "source": "BRGM 2019"
  }
},
{
  "type": "node",
  "id": 7001619326,
  "lat": 48.3395690,
  "lon": 5.4326160,
  "tags": {
    "natural": "sinkhole",
    "ref:FR:BRGM": "LORAW0041520",
    "sinkhole": "doline",
    "source": "BRGM 2019"
  }
},
{
  "type": "node",
  "id": 7001619327,
  "lat": 48.3395450,
  "lon": 5.4325070,
  "tags": {
    "name": "Gouffre Hadès",
    "natural": "sinkhole",
    "ref:FR:BRGM": "LORAW0018157",
    "sinkhole": "pit",
    "source": "BRGM 2019"
  }
},
{
  "type": "node",
  "id": 7001619328,
  "lat": 48.3395190,
  "lon": 5.4316160,
  "tags": {
    "natural": "sinkhole",
    "ref:FR:BRGM": "LORAW0041519",
    "sinkhole": "doline",
    "source": "BRGM 2019"
  }
},
{
  "type": "node",
  "id": 7001619329,
  "lat": 48.3395890,
  "lon": 5.4313960,
  "tags": {
    "natural": "sinkhole",
    "ref:FR:BRGM": "LORAW0041518",
    "sinkhole": "doline",
    "source": "BRGM 2019"
  }
},
{
  "type": "node",
  "id": 7001619330,
  "lat": 48.3394990,
  "lon": 5.4310950,
  "tags": {
    "natural": "sinkhole",
    "ref:FR:BRGM": "LORAW0041517",
    "sinkhole": "doline",
    "source": "BRGM 2019"
  }
},
{
  "type": "node",
  "id": 7001619331,
  "lat": 48.3396390,
  "lon": 5.4309750,
  "tags": {
    "natural": "sinkhole",
    "ref:FR:BRGM": "LORAW0041516",
    "sinkhole": "doline",
    "source": "BRGM 2019"
  }
},
{
  "type": "node",
  "id": 7001619332,
  "lat": 48.3395890,
  "lon": 5.4306460,
  "tags": {
    "natural": "sinkhole",
    "ref:FR:BRGM": "LORAW0041515",
    "sinkhole": "doline",
    "source": "BRGM 2019"
  }
},
{
  "type": "node",
  "id": 7001619333,
  "lat": 48.3394390,
  "lon": 5.4302950,
  "tags": {
    "natural": "sinkhole",
    "ref:FR:BRGM": "LORAW0041514",
    "sinkhole": "pit",
    "source": "BRGM 2019"
  }
},
{
  "type": "node",
  "id": 7001619334,
  "lat": 48.3401230,
  "lon": 5.4297070,
  "tags": {
    "natural": "sinkhole",
    "ref:FR:BRGM": "LORAW0013521",
    "sinkhole": "pit",
    "source": "BRGM 2019"
  }
},
{
  "type": "node",
  "id": 7001619335,
  "lat": 48.3392210,
  "lon": 5.4301390,
  "tags": {
    "natural": "sinkhole",
    "ref:FR:BRGM": "LORAW0013520",
    "sinkhole": "pit",
    "source": "BRGM 2019"
  }
},
{
  "type": "node",
  "id": 7001619336,
  "lat": 48.3399490,
  "lon": 5.4291760,
  "tags": {
    "natural": "sinkhole",
    "ref:FR:BRGM": "LORAW0041513",
    "sinkhole": "doline",
    "source": "BRGM 2019"
  }
},
{
  "type": "node",
  "id": 7001619337,
  "lat": 48.3407690,
  "lon": 5.4280160,
  "tags": {
    "natural": "sinkhole",
    "ref:FR:BRGM": "LORAW0041511",
    "sinkhole": "doline",
    "source": "BRGM 2019"
  }
},
{
  "type": "node",
  "id": 7001619338,
  "lat": 48.3402490,
  "lon": 5.4286250,
  "tags": {
    "natural": "sinkhole",
    "ref:FR:BRGM": "LORAW0041512",
    "sinkhole": "doline",
    "source": "BRGM 2019"
  }
},
{
  "type": "node",
  "id": 7001881746,
  "lat": 47.8102094,
  "lon": 13.6193414,
  "tags": {
    "natural": "sinkhole"
  }
},
{
  "type": "node",
  "id": 7001881961,
  "lat": 47.8094880,
  "lon": 13.6174411,
  "tags": {
    "natural": "sinkhole"
  }
},
{
  "type": "node",
  "id": 7001881962,
  "lat": 47.8093349,
  "lon": 13.6176798,
  "tags": {
    "natural": "sinkhole"
  }
},
{
  "type": "node",
  "id": 7001881966,
  "lat": 47.8091556,
  "lon": 13.6186802,
  "tags": {
    "natural": "sinkhole"
  }
},
{
  "type": "node",
  "id": 7001881967,
  "lat": 47.8089043,
  "lon": 13.6198054,
  "tags": {
    "natural": "sinkhole"
  }
},
{
  "type": "node",
  "id": 7001881968,
  "lat": 47.8090061,
  "lon": 13.6196110,
  "tags": {
    "natural": "sinkhole"
  }
},
{
  "type": "node",
  "id": 7001881969,
  "lat": 47.8090520,
  "lon": 13.6193092,
  "tags": {
    "natural": "sinkhole"
  }
},
{
  "type": "node",
  "id": 7001881970,
  "lat": 47.8091196,
  "lon": 13.6189216,
  "tags": {
    "natural": "sinkhole"
  }
},
{
  "type": "node",
  "id": 7001881971,
  "lat": 47.8092520,
  "lon": 13.6182994,
  "tags": {
    "natural": "sinkhole"
  }
},
{
  "type": "node",
  "id": 7001881972,
  "lat": 47.8092709,
  "lon": 13.6179936,
  "tags": {
    "natural": "sinkhole"
  }
},
{
  "type": "node",
  "id": 7001881973,
  "lat": 47.8093880,
  "lon": 13.6173445,
  "tags": {
    "natural": "sinkhole"
  }
},
{
  "type": "node",
  "id": 7001881974,
  "lat": 47.8093538,
  "lon": 13.6171138,
  "tags": {
    "natural": "sinkhole"
  }
},
{
  "type": "node",
  "id": 7001881975,
  "lat": 47.8095753,
  "lon": 13.6166069,
  "tags": {
    "natural": "sinkhole"
  }
},
{
  "type": "node",
  "id": 7015319543,
  "lat": 47.8143037,
  "lon": 13.6739123,
  "tags": {
    "natural": "sinkhole"
  }
},
{
  "type": "node",
  "id": 7015319544,
  "lat": 47.8145234,
  "lon": 13.6738345,
  "tags": {
    "natural": "sinkhole"
  }
},
{
  "type": "node",
  "id": 7015319547,
  "lat": 47.8144784,
  "lon": 13.6723512,
  "tags": {
    "natural": "sinkhole"
  }
},
{
  "type": "node",
  "id": 7015319548,
  "lat": 47.8146639,
  "lon": 13.6726248,
  "tags": {
    "natural": "sinkhole"
  }
},
{
  "type": "node",
  "id": 7015319549,
  "lat": 47.8148747,
  "lon": 13.6721796,
  "tags": {
    "natural": "sinkhole"
  }
},
{
  "type": "node",
  "id": 7015319569,
  "lat": 47.8044232,
  "lon": 13.6381960,
  "tags": {
    "natural": "sinkhole"
  }
},
{
  "type": "node",
  "id": 7015319572,
  "lat": 47.8044808,
  "lon": 13.6395505,
  "tags": {
    "natural": "sinkhole"
  }
},
{
  "type": "node",
  "id": 7017554196,
  "lat": 47.6456335,
  "lon": 13.8340439,
  "tags": {
    "natural": "sinkhole",
    "sinkhole": "doline"
  }
},
{
  "type": "node",
  "id": 7017554197,
  "lat": 47.6454473,
  "lon": 13.8264190,
  "tags": {
    "natural": "sinkhole",
    "sinkhole": "doline"
  }
},
{
  "type": "node",
  "id": 7083891904,
  "lat": 47.8109642,
  "lon": 13.5887226,
  "tags": {
    "natural": "sinkhole"
  }
},
{
  "type": "node",
  "id": 7083891909,
  "lat": 47.8117964,
  "lon": 13.5884786,
  "tags": {
    "natural": "sinkhole"
  }
},
{
  "type": "node",
  "id": 7091880367,
  "lat": 48.8365019,
  "lon": 11.2305620,
  "tags": {
    "natural": "sinkhole",
    "sinkhole": "doline"
  }
},
{
  "type": "node",
  "id": 7113049580,
  "lat": 46.6257122,
  "lon": 6.1783504,
  "tags": {
    "natural": "sinkhole",
    "sinkhole": "pit"
  }
},
{
  "type": "node",
  "id": 7113063687,
  "lat": 46.6356252,
  "lon": 6.1287188,
  "tags": {
    "natural": "sinkhole",
    "sinkhole": "pit"
  }
},
{
  "type": "node",
  "id": 7160476160,
  "lat": 47.5790973,
  "lon": 14.9894803,
  "tags": {
    "natural": "sinkhole"
  }
},
{
  "type": "node",
  "id": 7160476161,
  "lat": 47.5788693,
  "lon": 14.9872420,
  "tags": {
    "natural": "sinkhole"
  }
},
{
  "type": "node",
  "id": 7160476162,
  "lat": 47.5722069,
  "lon": 14.9822814,
  "tags": {
    "natural": "sinkhole"
  }
},
{
  "type": "node",
  "id": 7160476163,
  "lat": 47.5737682,
  "lon": 14.9832973,
  "tags": {
    "natural": "sinkhole"
  }
},
{
  "type": "node",
  "id": 7160507813,
  "lat": 47.5828052,
  "lon": 14.9964560,
  "tags": {
    "natural": "sinkhole"
  }
},
{
  "type": "node",
  "id": 7216980616,
  "lat": 48.3391894,
  "lon": 8.5832459,
  "tags": {
    "natural": "sinkhole"
  }
},
{
  "type": "node",
  "id": 7235876841,
  "lat": 48.7021310,
  "lon": 8.2534840,
  "tags": {
    "natural": "sinkhole",
    "sinkhole": "ponor"
  }
},
{
  "type": "node",
  "id": 7256596923,
  "lat": 46.0609496,
  "lon": 12.4358625,
  "tags": {
    "depth": "14.5",
    "description": "Catasto Speleologico Regionale Del Friuli Venezia Giulia: n. 7251",
    "ele": "1258",
    "name": "Pozzo della Sorgente",
    "natural": "sinkhole",
    "sinkhole": "pit",
    "source": "CSpR-FVG"
  }
},
{
  "type": "node",
  "id": 7256596924,
  "lat": 46.0664397,
  "lon": 12.4398006,
  "tags": {
    "depth": "9.3",
    "description": "Catasto Speleologico Regionale Del Friuli Venezia Giulia no. 6810",
    "ele": "1175",
    "name": "Pozzo dei Fossili",
    "natural": "sinkhole",
    "sinkhole": "pit",
    "source": "CSpR-FVG"
  }
},
{
  "type": "node",
  "id": 7263479726,
  "lat": 47.2914049,
  "lon": 7.3277253,
  "tags": {
    "natural": "sinkhole"
  }
},
{
  "type": "node",
  "id": 7263479727,
  "lat": 47.2917251,
  "lon": 7.3291308,
  "tags": {
    "natural": "sinkhole"
  }
},
{
  "type": "node",
  "id": 7263479728,
  "lat": 47.2920562,
  "lon": 7.3308045,
  "tags": {
    "natural": "sinkhole"
  }
},
{
  "type": "node",
  "id": 7263479729,
  "lat": 47.2924382,
  "lon": 7.3319632,
  "tags": {
    "natural": "sinkhole"
  }
},
{
  "type": "node",
  "id": 7263479730,
  "lat": 47.2936935,
  "lon": 7.3363781,
  "tags": {
    "natural": "sinkhole"
  }
},
{
  "type": "node",
  "id": 7263479731,
  "lat": 47.2944357,
  "lon": 7.3373276,
  "tags": {
    "natural": "sinkhole"
  }
},
{
  "type": "node",
  "id": 7263479732,
  "lat": 47.2953235,
  "lon": 7.3400527,
  "tags": {
    "natural": "sinkhole"
  }
},
{
  "type": "node",
  "id": 7263479733,
  "lat": 47.2951124,
  "lon": 7.3395377,
  "tags": {
    "natural": "sinkhole"
  }
},
{
  "type": "node",
  "id": 7263479734,
  "lat": 47.2947959,
  "lon": 7.3388618,
  "tags": {
    "natural": "sinkhole"
  }
},
{
  "type": "node",
  "id": 7263479735,
  "lat": 47.2958692,
  "lon": 7.3422468,
  "tags": {
    "natural": "sinkhole"
  }
},
{
  "type": "node",
  "id": 7263479736,
  "lat": 47.2920089,
  "lon": 7.3305255,
  "tags": {
    "natural": "sinkhole"
  }
},
{
  "type": "node",
  "id": 7263479737,
  "lat": 47.2918852,
  "lon": 7.3299354,
  "tags": {
    "natural": "sinkhole"
  }
},
{
  "type": "node",
  "id": 7263479738,
  "lat": 47.2916705,
  "lon": 7.3284334,
  "tags": {
    "natural": "sinkhole"
  }
},
{
  "type": "node",
  "id": 7263479739,
  "lat": 47.2923182,
  "lon": 7.3315984,
  "tags": {
    "natural": "sinkhole"
  }
},
{
  "type": "node",
  "id": 7263479740,
  "lat": 47.2929658,
  "lon": 7.3327625,
  "tags": {
    "natural": "sinkhole"
  }
},
{
  "type": "node",
  "id": 7263479741,
  "lat": 47.2932278,
  "lon": 7.3331433,
  "tags": {
    "natural": "sinkhole"
  }
},
{
  "type": "node",
  "id": 7263479742,
  "lat": 47.2933187,
  "lon": 7.3336476,
  "tags": {
    "natural": "sinkhole"
  }
},
{
  "type": "node",
  "id": 7263479743,
  "lat": 47.2934570,
  "lon": 7.3342431,
  "tags": {
    "natural": "sinkhole"
  }
},
{
  "type": "node",
  "id": 7263479744,
  "lat": 47.2936753,
  "lon": 7.3347956,
  "tags": {
    "natural": "sinkhole"
  }
},
{
  "type": "node",
  "id": 7263479745,
  "lat": 47.2934097,
  "lon": 7.3381537,
  "tags": {
    "natural": "sinkhole"
  }
},
{
  "type": "node",
  "id": 7263479746,
  "lat": 47.2939300,
  "lon": 7.3366034,
  "tags": {
    "natural": "sinkhole"
  }
},
{
  "type": "node",
  "id": 7263479747,
  "lat": 47.2938681,
  "lon": 7.3356539,
  "tags": {
    "natural": "sinkhole"
  }
},
{
  "type": "node",
  "id": 7263479748,
  "lat": 47.2942538,
  "lon": 7.3366892,
  "tags": {
    "natural": "sinkhole"
  }
},
{
  "type": "node",
  "id": 7263479749,
  "lat": 47.2947704,
  "lon": 7.3384809,
  "tags": {
    "natural": "sinkhole"
  }
},
{
  "type": "node",
  "id": 7263479750,
  "lat": 47.2956545,
  "lon": 7.3408896,
  "tags": {
    "natural": "sinkhole"
  }
},
{
  "type": "node",
  "id": 7263479751,
  "lat": 47.2904589,
  "lon": 7.3230636,
  "tags": {
    "natural": "sinkhole"
  }
},
{
  "type": "node",
  "id": 7280032553,
  "lat": 46.2791507,
  "lon": 12.4081518,
  "tags": {
    "depth": "18.5",
    "description": "N. 3639 del Catasto Speleologico Regionale Del Friuli Venezia Giulia",
    "ele": "1389",
    "name": "Pozzo delle Rope",
    "natural": "sinkhole",
    "source": "CSpR-FVG"
  }
},
{
  "type": "node",
  "id": 7280036746,
  "lat": 46.2788302,
  "lon": 12.4086218,
  "tags": {
    "depth": "17.9",
    "description": "N. 7212 del Catasto Speleologico Regionale Del Friuli Venezia Giulia",
    "ele": "1401",
    "name": "Pozzo sul sentiero - M. Cornetto",
    "natural": "sinkhole",
    "source": "CSpR-FVG"
  }
},
{
  "type": "node",
  "id": 7280152798,
  "lat": 46.0615629,
  "lon": 12.4235516,
  "tags": {
    "depth": "23",
    "description": "n° 7751 del Catasto Speleologico Regionale Del Friuli Venezia Giulia",
    "ele": "1034",
    "name": "Pozzo Nausicaa",
    "natural": "sinkhole",
    "source": "CSpR-FVG"
  }
},
{
  "type": "node",
  "id": 7280298500,
  "lat": 46.0590100,
  "lon": 12.4374220,
  "tags": {
    "depth": "7",
    "description": "n° 7713 del Catasto Speleologico Regionale Del Friuli Venezia Giulia",
    "ele": "1254",
    "name": "Pozzo dello Slargo",
    "natural": "sinkhole",
    "source": "CSpR-FVG"
  }
},
{
  "type": "node",
  "id": 7280303661,
  "lat": 46.0586406,
  "lon": 12.4345025,
  "tags": {
    "depth": "10",
    "description": "n° 7749 del Catasto Speleologico Regionale Del Friuli Venezia Giulia",
    "ele": "1260",
    "name": "Pozzo PH",
    "natural": "sinkhole",
    "source": "CSpR-FVG"
  }
},
{
  "type": "node",
  "id": 7280312209,
  "lat": 46.0579906,
  "lon": 12.4355226,
  "tags": {
    "depth": "13.4",
    "description": "n° 7250 del Catasto Speleologico Regionale Del Friuli Venezia Giulia",
    "ele": "1251",
    "name": "Pozzo del Triangolo",
    "natural": "sinkhole",
    "source": "CSpR-FVG"
  }
},
{
  "type": "node",
  "id": 7296490348,
  "lat": 46.0550707,
  "lon": 12.4252312,
  "tags": {
    "depth": "36",
    "description": "n° 231 del Catasto Speleologico Regionale del Friuli Venezia Giulia",
    "ele": "1100",
    "name": "Pozzo di Val Palazzo",
    "natural": "sinkhole",
    "source": "CSpR-FVG"
  }
},
{
  "type": "node",
  "id": 7296512147,
  "lat": 46.0574502,
  "lon": 12.4255516,
  "tags": {
    "depth": "5",
    "description": "n° 6995 del Catasto Speleologico Regionale del Friuli Venezia Giulia",
    "ele": "1095",
    "name": "Pozzo 4° di Val Palazzo",
    "natural": "sinkhole",
    "source": "CSpR-FVG"
  }
},
{
  "type": "node",
  "id": 7296520219,
  "lat": 46.0602301,
  "lon": 12.4205918,
  "tags": {
    "depth": "10",
    "description": "n° 6993 del Catasto Speleologico Regionale Del Friuli Venezia Giulia",
    "ele": "1020",
    "name": "Fossa di Val Palazzo",
    "natural": "sinkhole",
    "source": "CSpR-FVG"
  }
},
{
  "type": "node",
  "id": 7296528411,
  "lat": 46.0601198,
  "lon": 12.4251212,
  "tags": {
    "depth": "9.5",
    "description": "n° 7044 del Catasto Speleologico Regionale Del Friuli Venezia Giulia",
    "ele": "1058",
    "name": "Voraginetta a N della Val Palazzo",
    "natural": "sinkhole",
    "source": "CSpR-FVG"
  }
},
{
  "type": "node",
  "id": 7296553363,
  "lat": 46.0551305,
  "lon": 12.4250813,
  "tags": {
    "depth": "8.5",
    "description": "n° 6991 del Catasto Speleologico Regionale del Friuli Venezia Giulia",
    "ele": "1108",
    "name": "Pozzo presso la 231",
    "natural": "sinkhole",
    "source": "CSpR-FVG"
  }
},
{
  "type": "node",
  "id": 7296559885,
  "lat": 46.0572410,
  "lon": 12.4254501,
  "tags": {
    "depth": "2",
    "description": "n° 6994 del Catasto Speleologico Regionale del Friuli Venezia Giulia",
    "ele": "1100",
    "name": "Pozzo 3° di Val Palazzo",
    "natural": "sinkhole",
    "source": "CSpR-FVG"
  }
},
{
  "type": "node",
  "id": 7296630179,
  "lat": 46.0518803,
  "lon": 12.4395609,
  "tags": {
    "depth": "13",
    "description": "n° 230 del Catasto Speleologico Regionale del Friuli Venezia Giulia",
    "ele": "1310",
    "name": "Voragine presso Casere Col dei Scios",
    "natural": "sinkhole",
    "sinkhole": "pit",
    "source": "CSpR-FVG"
  }
},
{
  "type": "node",
  "id": 7297633312,
  "lat": 46.0542696,
  "lon": 12.4201894,
  "tags": {
    "depth": "6.84",
    "description": "n° 7993 del Catasto Speleologico Regionale del Friuli Venezia Giulia",
    "ele": "1090",
    "name": "Bus de la Sberla",
    "natural": "sinkhole",
    "source": "CSpR-FVG"
  }
},
{
  "type": "node",
  "id": 7297660552,
  "lat": 46.0554804,
  "lon": 12.4178101,
  "tags": {
    "depth": "10",
    "description": "n° 6814 del Catasto Speleologico Regionale del Friuli Venezia Giulia",
    "ele": "1075",
    "name": "Fossa del Mai",
    "natural": "sinkhole",
    "source": "CSpR-FVG"
  }
},
{
  "type": "node",
  "id": 7297664404,
  "lat": 46.0568199,
  "lon": 12.4139800,
  "tags": {
    "depth": "5",
    "description": "n° 7247 del Catasto Speleologico Regionale del Friuli Venezia Giulia. La cavità è costituita da una dolina sul fondo della quale un \"traforo\" consente di passare (strisciando) in un altro avvallamento.",
    "ele": "1060",
    "name": "Fossetta Doppia",
    "natural": "sinkhole",
    "source": "CSpR-FVG"
  }
},
{
  "type": "node",
  "id": 7297677563,
  "lat": 46.0506306,
  "lon": 12.4215795,
  "tags": {
    "depth": "18",
    "description": "n° 7624 del Catasto Speleologico Regionale del Friuli Venezia Giulia",
    "ele": "1150",
    "name": "Pozzo Paolo Casoni",
    "natural": "sinkhole",
    "sinkhole": "pit",
    "source": "CSpR-FVG"
  }
},
{
  "type": "node",
  "id": 7297714938,
  "lat": 46.0493402,
  "lon": 12.4223306,
  "tags": {
    "depth": "40",
    "description": "N° 18 del Catasto Speleologico Regionale del Friuli Venezia Giulia",
    "ele": "1150",
    "name": "Sperlonga delle Do Boche",
    "natural": "sinkhole",
    "sinkhole": "pit"
  }
},
{
  "type": "node",
  "id": 7297722451,
  "lat": 46.0491400,
  "lon": 12.4226595,
  "tags": {
    "depth": "6",
    "description": "N° 2107 del Catasto Speleologico Regionale del Friuli Venezia Giulia",
    "ele": "1170",
    "name": "Pozzetto presso la 256 FR",
    "natural": "sinkhole",
    "sinkhole": "pit",
    "source": "CSpR-FVG"
  }
},
{
  "type": "node",
  "id": 7297734156,
  "lat": 46.0488901,
  "lon": 12.4215302,
  "tags": {
    "depth": "43",
    "description": "N° 897 del Catasto Speleologico Regionale del Friuli Venezia Giulia",
    "ele": "1127",
    "name": "Abisso del Gufo Reale",
    "natural": "sinkhole",
    "sinkhole": "pit",
    "source": "CSpR-FVG"
  }
},
{
  "type": "node",
  "id": 7305472468,
  "lat": 46.0582804,
  "lon": 12.4135606,
  "tags": {
    "access": "no",
    "description": "N° 6988 del Catasto Speleologico Regionale del Friuli Venezia Giulia",
    "ele": "1027",
    "name": "Pozzo Esperanza",
    "natural": "sinkhole",
    "sinkhole": "pit",
    "source": "CSpR-FVG"
  }
},
{
  "type": "node",
  "id": 7306333659,
  "lat": 46.0452108,
  "lon": 12.4361495,
  "tags": {
    "depth": "5",
    "description": "N° 6996 del Catasto Speleologico Regionale del Friuli Venezia Giulia",
    "ele": "1278",
    "name": "Pozzo presso la 985",
    "natural": "sinkhole",
    "sinkhole": "pit",
    "source": "CSpR-FVG"
  }
},
{
  "type": "node",
  "id": 7306349512,
  "lat": 46.0446519,
  "lon": 12.4363504,
  "tags": {
    "depth": "35",
    "description": "N° 985 del Catasto Speleologico Regionale del Friuli Venezia Giulia",
    "ele": "1271",
    "name": "Pozzo di Cima Paradise",
    "natural": "sinkhole",
    "sinkhole": "pit",
    "source": "CSpR-FVG"
  }
},
{
  "type": "node",
  "id": 7306375358,
  "lat": 46.0441497,
  "lon": 12.4487503,
  "tags": {
    "depth": "8",
    "description": "N° 7253 del Catasto Speleologico Regionale del Friuli Venezia Giulia",
    "ele": "1237",
    "name": "Pozzo Michele",
    "natural": "sinkhole",
    "sinkhole": "pit",
    "source": "CSpR-FVG"
  }
},
{
  "type": "node",
  "id": 7306393288,
  "lat": 46.0438511,
  "lon": 12.4524303,
  "tags": {
    "depth": "10",
    "description": "N° 5984 del Catasto Speleologico Regionale del Friuli Venezia Giulia",
    "ele": "1180",
    "name": "Pozzo 1° a S di Casera Bravin",
    "natural": "sinkhole",
    "sinkhole": "pit",
    "source": "CSpR-FVG;sink"
  }
},
{
  "type": "node",
  "id": 7320462384,
  "lat": 46.0634400,
  "lon": 12.4605820,
  "tags": {
    "depth": "7.5",
    "description": "N° 5986 del Catasto Speleologico Regionale del Friuli Venezia Giulia",
    "ele": "1343",
    "name": "Bus dei Settantacinque",
    "natural": "sinkhole",
    "sinkhole": "pit",
    "source": "CSpR-FVG"
  }
},
{
  "type": "node",
  "id": 7320569353,
  "lat": 46.0624989,
  "lon": 12.4681297,
  "tags": {
    "depth": "24",
    "description": "N° 7130 del Catasto Speleologico Regionale del Friuli Venezia Giulia",
    "ele": "1324",
    "name": "Bus de la Pila",
    "natural": "sinkhole",
    "sinkhole": "pit",
    "source": "CSpR-FVG"
  }
},
{
  "type": "node",
  "id": 7320600723,
  "lat": 46.0447301,
  "lon": 12.4216911,
  "tags": {
    "depth": "16",
    "description": "N° 5022 del Catasto Speleologico Regionale del Friuli Venezia Giulia",
    "ele": "1125",
    "name": "Voragine a SE del Col de la Rizza",
    "natural": "sinkhole",
    "sinkhole": "doline",
    "source": "CSpR-FVG"
  }
},
{
  "type": "node",
  "id": 7320627687,
  "lat": 46.0696701,
  "lon": 12.4664215,
  "tags": {
    "depth": "21",
    "description": "N° 2109 del Catasto Speleologico Regionale del Friuli Venezia Giulia",
    "ele": "1427",
    "name": "Pozzo del Col de le Palse",
    "natural": "sinkhole",
    "sinkhole": "pit",
    "source": "CSpR-FVG"
  }
},
{
  "type": "node",
  "id": 7321431153,
  "lat": 46.0458991,
  "lon": 12.4075614,
  "tags": {
    "access": "no",
    "depth": "31",
    "description": "N° 7166 del Catasto Speleologico Regionale del Friuli Venezia Giulia",
    "ele": "1030",
    "name": "Pozzo Tifor",
    "natural": "sinkhole",
    "sinkhole": "pit",
    "source": "CSpR-FVG"
  }
},
{
  "type": "node",
  "id": 7321445718,
  "lat": 46.0489803,
  "lon": 12.4162103,
  "tags": {
    "depth": "9",
    "description": "N° 7243 del Catasto Speleologico Regionale del Friuli Venezia Giulia",
    "ele": "1102",
    "name": "Pozzetto del Bergamasco",
    "natural": "sinkhole",
    "sinkhole": "pit",
    "source": "CSpR-FVG"
  }
},
{
  "type": "node",
  "id": 7321474378,
  "lat": 46.0541311,
  "lon": 12.4138700,
  "tags": {
    "depth": "50",
    "description": "N° 6811 del Catasto Speleologico Regionale del Friuli Venezia Giulia",
    "ele": "1042",
    "name": "Abisso Y",
    "natural": "sinkhole",
    "sinkhole": "pit",
    "source": "CSpR-FVG"
  }
},
{
  "type": "node",
  "id": 7321475254,
  "lat": 46.0540600,
  "lon": 12.4139717,
  "tags": {
    "depth": "31",
    "description": "N° 6813 del Catasto Speleologico Regionale del Friuli Venezia Giulia",
    "ele": "1035",
    "name": "Pozzo 1° presso l'Abisso Y",
    "natural": "sinkhole",
    "sinkhole": "pit",
    "source": "CSpR-FVG"
  }
},
{
  "type": "node",
  "id": 7321491834,
  "lat": 46.0535708,
  "lon": 12.4130508,
  "tags": {
    "depth": "6.5",
    "description": "N° 6990 del Catasto Speleologico Regionale del Friuli Venezia Giulia",
    "ele": "1053",
    "name": "Fessura del Sistema 3",
    "natural": "sinkhole",
    "sinkhole": "doline",
    "source": "CSpR-FVG"
  }
},
{
  "type": "node",
  "id": 7321517679,
  "lat": 46.0529300,
  "lon": 12.4166604,
  "tags": {
    "depth": "9",
    "description": "N° 6904 del Catasto Speleologico Regionale del Friuli Venezia Giulia",
    "ele": "1058",
    "name": "Pozzo doppio SE Bus de la Lum",
    "natural": "sinkhole",
    "source": "CSpR-FVG"
  }
},
{
  "type": "node",
  "id": 7321519201,
  "lat": 46.0531611,
  "lon": 12.4167417,
  "tags": {
    "depth": "5.8",
    "description": "N° 6892 del Catasto Speleologico Regionale del Friuli Venezia Giulia",
    "ele": "1055",
    "name": "Pozzetto a SE del Bus de la Lum",
    "natural": "sinkhole",
    "source": "CSpR-FVG"
  }
},
{
  "type": "node",
  "id": 7321520006,
  "lat": 46.0532501,
  "lon": 12.4150112,
  "tags": {
    "depth": "6.8",
    "description": "N° 6989 del Catasto Speleologico Regionale del Friuli Venezia Giulia",
    "ele": "1055",
    "name": "Pozzo 1° del Sistema 3",
    "natural": "sinkhole",
    "sinkhole": "pit",
    "source": "CSpR-FVG"
  }
},
{
  "type": "node",
  "id": 7323523630,
  "lat": 46.0510912,
  "lon": 12.4101218,
  "tags": {
    "depth": "5",
    "description": "N° 7096 del Catasto Speleologico Regionale del Friuli Venezia Giulia",
    "ele": "997",
    "name": "Buco del Fango 1",
    "natural": "sinkhole",
    "sinkhole": "pit",
    "source": "CSpR-FVG"
  }
},
{
  "type": "node",
  "id": 7323628063,
  "lat": 46.0532789,
  "lon": 12.4081997,
  "tags": {
    "depth": "8",
    "description": "N° 168 del Catasto Speleologico Regionale del Friuli Venezia Giulia",
    "ele": "993",
    "name": "Busa dei Cavai",
    "natural": "sinkhole",
    "source": "CSpR-FVG"
  }
},
{
  "type": "node",
  "id": 7323629206,
  "lat": 46.0513303,
  "lon": 12.4101203,
  "tags": {
    "depth": "12.5",
    "description": "N° 7097 del Catasto Speleologico Regionale del Friuli Venezia Giulia",
    "ele": "1005",
    "name": "Buco del Fango 2",
    "natural": "sinkhole",
    "sinkhole": "pit",
    "source": "CSpR-FVG"
  }
},
{
  "type": "node",
  "id": 7323663899,
  "lat": 46.0519403,
  "lon": 12.4100492,
  "tags": {
    "depth": "24",
    "description": "N° 7909 del Catasto Speleologico Regionale del Friuli Venezia Giulia",
    "ele": "1015",
    "name": "Pozzo X2",
    "natural": "sinkhole",
    "sinkhole": "pit",
    "source": "CSpR-FVG"
  }
},
{
  "type": "node",
  "id": 7323666430,
  "lat": 46.0529809,
  "lon": 12.4093495,
  "tags": {
    "depth": "11.2",
    "description": "N° 7110 del Catasto Speleologico Regionale del Friuli Venezia Giulia",
    "ele": "1004",
    "name": "Pozzo a S dell'Abisso X",
    "natural": "sinkhole",
    "sinkhole": "pit",
    "source": "CSpR-FVG"
  }
}

  ]
}
